[
    {
        "raw": "METAR KVNW 120955Z AUTO 07008KT M07/M11 A3024 RMK AO2 PWINO"
    },
    {
        "raw": "METAR KLQK 120955Z AUTO 07007KT 10SM OVC007 04/04 A3005 RMK AO2 T00370037"
    },
    {
        "raw": "METAR KJCT 120951Z AUTO 05011KT 3SM BR OVC006 M02/M04 A3013 RMK AO2 SLP201 I1000 T10221044"
    },
    {
        "raw": "METAR KBAZ 120951Z AUTO 02015G22KT 2 1/2SM -FZRA OVC007 A3011 RMK AO2 PK WND 02027/0922 RAB25E32FZRAB32 SLPNO P0000 I1002 $"
    },
    {
        "raw": "METAR KSTL 120951Z 36010KT 9SM -SN FEW018 OVC043 M10/M14 A3036 RMK AO2 SLP298 P0000 T11001144 $"
    },
    {
        "raw": "METAR EGKK 120950Z 08013KT CAVOK M00/M07 Q1029"
    },
    {
        "raw": "METAR KOMA 120952Z 02008KT 10SM OVC095 M22/M24 A3060 RMK AO2 SLP391 T12171244 $"
    },
    {
        "raw": "METAR EGLL 120950Z AUTO 10014KT 9999 NCD 00/M07 Q1030"
    },
    {
        "raw": "METAR KPSX 120952Z AUTO 01014G24KT 2SM BR OVC005 02/01 A3005 RMK AO2 PK WND 36030/0921 SLP174 T00170011 $"
    },
    {
        "raw": "METAR KESN 120955Z AUTO 02006KT 10SM OVC048 M01/M05 A3032 RMK AO2 T10121049"
    },
    {
        "raw": "METAR KETH 120953Z AUTO 23003KT 10SM CLR M27/M31 A3062 RMK AO2"
    },
    {
        "raw": "METAR EGKA 120950Z 07014KT 9999 FEW022 02/M06 Q1029"
    },
    {
        "raw": "METAR EGPF 120950Z AUTO 07009KT 9999 NCD M00/M03 Q1031"
    },
    {
        "raw": "METAR KMAW 120955Z AUTO 01012KT 10SM OVC041 M03/M07 A3028 RMK AO2"
    },
    {
        "raw": "METAR KFOZ 120953Z AUTO 00000KT 10SM M30/M33 A3052 RMK AO2"
    },
    {
        "raw": "METAR K1P1 120955Z AUTO 00000KT 10SM CLR M15/M23 A3026 RMK AO2 T11541231"
    },
    {
        "raw": "METAR KERI 120951Z AUTO 08007KT 10SM BKN090 BKN120 M07/M14 A3032 RMK AO2 SLP278 T10721144"
    },
    {
        "raw": "METAR KD55 120955Z AUTO 24008KT 10SM CLR M36/ A3042 RMK AO2"
    },
    {
        "raw": "METAR FYWH 120900Z 14011KT 4000 -DZ SCT010 OVC020 19/18 Q1018 NOSIG"
    },
    {
        "raw": "METAR K08D 120955Z AUTO 26009KT 10SM SCT031 SCT037 SCT044 M33/M36 A3035 RMK AO2"
    },
    {
        "raw": "METAR KAFN 120952Z AUTO 25006KT 10SM CLR M15/M21 A3022 RMK AO2 SLP260 T11501211"
    },
    {
        "raw": "METAR KALS 120952Z AUTO 00000KT 10SM CLR M02/M08 A2984 RMK AO2 SLP081 T10221078"
    },
    {
        "raw": "METAR EGNX 120950Z 10014KT CAVOK M01/M04 Q1031"
    },
    {
        "raw": "METAR KBLH 120952Z AUTO 20010KT 10SM CLR 17/04 A2979 RMK AO2 SLP084 T01720039"
    },
    {
        "raw": "METAR EGFF 120950Z AUTO 09017KT 9999 NCD 01/M07 Q1027"
    },
    {
        "raw": "METAR ESSL 120950Z 31005KT 9999 BKN039 M06/M09 Q1035 R29/09//95"
    },
    {
        "raw": "METAR KMLI 120952Z AUTO 32007KT 10SM CLR M16/M20 A3043 RMK AO2 SLP321 T11561200"
    },
    {
        "raw": "METAR PAKX 120955Z AUTO 07012G23KT 10SM BKN065 OVC075 02/M07 A2989 RMK AO2"
    },
    {
        "raw": "METAR KCQT 120952Z AUTO 00000KT 5SM HZ OVC016 13/09 A2997 RMK AO2 SLP148 T01330094"
    },
    {
        "raw": "METAR LGKR 120950Z 27004KT 9999 FEW025 17/08 Q1019 NOSIG"
    },
    {
        "raw": "METAR KMPV 120951Z AUTO 29008KT 10SM CLR M19/M24 A3030 RMK AO2 SLP291 T11891244 TSNO"
    },
    {
        "raw": "METAR KBIS 120952Z 22005KT 10SM CLR M28/M32 A3050 RMK AO2 SLP390 T12781322"
    },
    {
        "raw": "SPECI KLPC 120953Z AUTO 06003KT 2 1/2SM -RA BR BKN007 OVC013 12/11 A2998 RMK AO2 RAB04 CIG 004V009 P0007"
    },
    {
        "raw": "METAR FLKK 120800Z 27007KT 9999 SCT020 BKN100 25/18 Q1016"
    },
    {
        "raw": "METAR HTIB 120800Z 00000KT 9999 FEW020 FEW021CB BKN100 22/19 Q1017"
    },
    {
        "raw": "SPECI KANJ 120952Z AUTO 10007KT 3SM -SN OVC023 M15/M21 A3045 RMK AO2 SNB29 P0000"
    },
    {
        "raw": "METAR KPWK 120952Z AUTO 32006KT 9SM OVC070 M12/M15 A3037 RMK AO2 SLP296 T11171150"
    },
    {
        "raw": "METAR KVTN 120952Z AUTO 03008KT 7SM SCT014 OVC080 M21/M25 A3044 RMK AO2 SLP375 T12061250"
    },
    {
        "raw": "METAR KW31 120955Z AUTO 02006KT 5SM OVC004 00/00 A3018 RMK AO1 P0003 T10051005"
    },
    {
        "raw": "METAR FYOA 120800Z 25008KT 9999 VCSH FEW010 BKN040 23/19 Q1014"
    },
    {
        "raw": "METAR ESGR 120950Z AUTO 34006KT 9999 BKN043/// BKN066/// OVC090/// M06/M10 Q1036"
    },
    {
        "raw": "METAR ESMQ 120950Z 33008KT CAVOK M06/M10 Q1034"
    },
    {
        "raw": "METAR KXSA 120955Z AUTO 02005KT 4SM -SN BKN007 OVC011 M01/M01 A3026 RMK AO2 P0002 T10151015"
    },
    {
        "raw": "METAR KIOW 120952Z AUTO 33008KT 10SM CLR M19/M23 A3049 RMK AO2 SLP343 T11941233"
    },
    {
        "raw": "METAR HTMG 120800Z 00000KT 9999 FEW025 BKN090 28/23 Q1013"
    },
    {
        "raw": "METAR HTMU 120800Z 00000KT 9999 FEW018CB BKN090 22/18 Q1018"
    },
    {
        "raw": "METAR EDDK 120950Z 11009KT 050V150 9999 FEW027 M03/M10 Q1032 NOSIG"
    },
    {
        "raw": "METAR LSZA 120950Z 21003KT 120V240 9999 FEW040 OVC050 04/M06 Q1023 NOSIG"
    },
    {
        "raw": "METAR KCQX 120952Z AUTO 32007KT 280V360 10SM CLR M07/M14 A3024 RMK AO2 SLP242 T10671139 $"
    },
    {
        "raw": "METAR EKRK 120950Z AUTO 35007KT 9999 NCD M05/M09 Q1038 R99/810295"
    },
    {
        "raw": "METAR LGRP 120950Z 29008KT 9999 FEW020 18/10 Q1015 NOSIG"
    },
    {
        "raw": "METAR EDDL 120950Z 04009KT 020V080 CAVOK M05/M10 Q1033 NOSIG"
    },
    {
        "raw": "METAR SUMU 121000Z 07009KT 9999 FEW030 BKN080 BKN200 21/19 Q1014 TEMPO RA"
    },
    {
        "raw": "METAR HTZA 120800Z 36012KT 9999 BKN018 FEW020CB 30/23 Q1010 NOSIG"
    },
    {
        "raw": "METAR KJFK 120951Z 35008KT 10SM FEW160 BKN250 M06/M13 A3035 RMK AO2 SLP277 T10611128"
    },
    {
        "raw": "METAR EGEC 120950Z 12030KT CAVOK 03/M07 Q1027"
    },
    {
        "raw": "METAR EKKA 120950Z AUTO 32001KT 9999 NCD M08/M10 Q1040 R27L/750295 NOSIG"
    },
    {
        "raw": "METAR EKSP 120950Z 02003KT 9999 FEW025 M08/M11 Q1039 R10L/390095 NOSIG"
    },
    {
        "raw": "SPECI KTVL 120949Z AUTO 15007KT 9SM -SN SCT025 BKN075 OVC100 00/M03 A2984 RMK AO2 P0004"
    },
    {
        "raw": "METAR UBEE 121000Z 27004KT 4000 BR OVC020 09/06 Q1014 R30/CLRD// NOSIG"
    },
    {
        "raw": "METAR EGAA 120950Z 11015KT CAVOK 03/M03 Q1025"
    },
    {
        "raw": "SPECI CYTE 120948Z AUTO 28017G31KT 3SM -SN CLR M18/M20 A2995 RMK PRESRR SLP153"
    },
    {
        "raw": "SPECI KGUR 120948Z AUTO 09006KT 9SM -SN SCT023 OVC047 M22/M26 A3023 RMK AO2 SLP358"
    },
    {
        "raw": "SPECI KVRB 120948Z AUTO 27003KT 1 1/2SM BR SCT090 18/18 A2999 RMK AO2 VIS 1/2V4"
    },
    {
        "raw": "SPECI KHBG 120948Z AUTO 02007KT 4SM BR OVC003 07/06 A3003 RMK AO2 CIG 003V007"
    },
    {
        "raw": "SPECI KCSM 121013Z AUTO 01018KT 9SM OVC015 M10/M13 A3031 RMK AO2 T11001128"
    },
    {
        "raw": "SPECI KIML 121012Z AUTO 02009KT 8SM FEW015 SCT025 OVC032 M18/M21 A3029 RMK AO2 SNE10 P0000 T11831211"
    },
    {
        "raw": "SPECI KRYY 121013Z AUTO 00000KT 1 1/4SM BR OVC002 11/11 A2997 RMK AO2 $"
    },
    {
        "raw": "SPECI KLFI 121011Z AUTO 03014KT 5SM -RA OVC008 00/00 A3022 RMK AO2 RAE01RAB11 SLP240 $"
    },
    {
        "raw": "SPECI KLTS 121010Z 02014KT 10SM -SN FEW007 OVC014 M08/M11 A3033 RMK AO2A SNB0901 SLP289 $"
    },
    {
        "raw": "SPECI KMUO 121013Z AUTO 30007KT 2 3/4SM -SN BR OVC002 00/ A2978 RMK AO2 VIS 2 1/4V2 3/4 SLP097 $"
    },
    {
        "raw": "METAR FBFT 120800Z 07009KT 030V120 9999 SCT020 25/18 Q1014"
    },
    {
        "raw": "SPECI KLOR 120948Z AUTO 00000KT 4SM BR OVC002 13/13 A2993 RMK AO2 OVC V BKN SLP118"
    },
    {
        "raw": "SPECI KMEH 120942Z AUTO 00000KT 3SM -SN OVC022 M11/M15 A2992"
    },
    {
        "raw": "METAR EDDM 120950Z 09012KT CAVOK M07/M12 Q1027 BECMG 07015KT"
    },
    {
        "raw": "SPECI KSUE 121014Z AUTO 36008KT 8SM -SN FEW022 BKN046 OVC055 M13/M15 A3037 RMK AO2 P0000 FZRANO"
    },
    {
        "raw": "SPECI KCAG 121012Z AUTO 00000KT 4SM -SN BR OVC027 01/M01 A2979 RMK AO2 SNB01 P0000 T00111011"
    },
    {
        "raw": "METAR LSZB 120950Z 35004KT 9999 BKN014 M05/M08 Q1021 NOSIG"
    },
    {
        "raw": "SPECI CYWK 120947Z AUTO 35013G19KT 9SM OVC021 M12/M16 A2995 RMK SLP193"
    },
    {
        "raw": "SPECI KMGE 120949Z AUTO 00000KT 3/4SM R29/4000V4500FT BR FEW008 BKN026 13/13 A2996 RMK AO2 DZE04 CIG 004 RWY11 SLP144 $"
    },
    {
        "raw": "SPECI KFSI 120950Z AUTO 01015G20KT 10SM OVC011 M08/M10 A3031 RMK AO2 SNE09UPB09E13SNB13E47UPB47E49SNB49E50 SLP279"
    },
    {
        "raw": "SPECI KBLU 120948Z AUTO 00000KT 3SM -SN BR SCT006 OVC010 01/M01 A2986 RMK AO2 P0007"
    },
    {
        "raw": "SPECI KFAF 121014Z 04006KT 6SM -RA BR OVC007 00/M01 A3022 RMK AO2A DZE09FZRAB09E14RAB14 PRESRR SLP237 $"
    },
    {
        "raw": "SPECI KEGI 121003Z AUTO 00000KT 1 3/8SM R18/4500FT BR OVC002 M A2993 RMK AO2 VIS 1 1/4V1 3/4 SLPNO ALSTG ESTMD $"
    },
    {
        "raw": "SPECI K4MR 121013Z AUTO 11014KT 7/8SM -FZDZ FZFG OVC002 M05/M05 A3004 RMK AO2 SLP167 $"
    },
    {
        "raw": "SPECI KMCN 120949Z AUTO 00000KT 1 3/4SM BR BKN003 OVC065 16/15 A2995"
    },
    {
        "raw": "SPECI KMBS 120949Z AUTO 10006KT 3SM -SN BR OVC038 M08/M11 A3036 RMK AO2 P0000"
    },
    {
        "raw": "SPECI CYKL 120950Z AUTO 34005KT 2 1/2SM -SN BKN013 OVC026 M14/M15 A2998 RMK VIS VRB 1 1/2-3 SLP203"
    },
    {
        "raw": "SPECI KNRB 120944Z AUTO 34004KT 6SM BR FEW002 SCT049 SCT055 17/17 A2995 RMK AO2 T01720167"
    },
    {
        "raw": "SPECI KBYG 121014Z AUTO 00000KT 1 3/4SM -SN OVC027 M25/M28 A3008 RMK AO2 P0000 T12501283"
    },
    {
        "raw": "SPECI CYYW 121016Z AUTO 00000KT 9SM BKN036 M36/M39 A3047 RMK SLP405"
    },
    {
        "raw": "SPECI KCRE 120948Z AUTO 02007KT 4SM BR OVC005 08/07 A3004 RMK AO1"
    },
    {
        "raw": "SPECI KNSI 120946Z AUTO 31019KT 1/2SM FG VV002 12/11 A2998 RMK AO2 PK WND 31030/0855 T01170111 $"
    },
    {
        "raw": "SPECI CYED 120951Z AUTO 28010KT 9SM -SN OVC041 OVC095 M24/M29 A3042"
    },
    {
        "raw": "SPECI KPQL 120951Z AUTO 35008KT 6SM OVC002 13/12 A2995 RMK AO2 RAB10E46 P0000"
    },
    {
        "raw": "SPECI KBIX 120951Z AUTO 05010KT 10SM RA OVC005 12/11 A2993 RMK AO2 CIG 003 RWY04 SLP138"
    },
    {
        "raw": "SPECI KHFF 121014Z AUTO 06008KT 10SM OVC006 02/02 A3012 RMK AO2 SLP217 $"
    },
    {
        "raw": "SPECI KHLR 121013Z AUTO 01005KT 10SM OVC006 M03/M04 A3020 RMK AO2 SLP235"
    },
    {
        "raw": "SPECI PACM 120951Z AUTO 09019G25KT 4SM -SN BR BKN035 OVC060 M05/M06 A2938 RMK AO2 PK WND 09028/0933 FZRANO PNO $"
    },
    {
        "raw": "SPECI KGPZ 120952Z AUTO 34006KT 1 3/4SM -SN SCT009 OVC015 M26/M29 A3049 RMK AO2 P0000 FZRANO"
    },
    {
        "raw": "SPECI KPOB 120943Z COR 05009G17KT 7SM DZ OVC005 03/02 A3013 RMK AO2A DZB38 SLP207 $ COR 0950"
    },
    {
        "raw": "SPECI KHEY 120948Z AUTO 00000KT 1SM BR OVC017 14/14 A2992 RMK AO2 VIS 1V2 1/4 SLP133 RVRNO"
    },
    {
        "raw": "SPECI KSGR 120951Z AUTO 36017G21KT 2 1/2SM -SN BR OVC005 03/02 A3004 RMK AO2 SNB35 P0000"
    },
    {
        "raw": "SPECI K1J0 120948Z AUTO 00000KT 10SM BKN006 OVC024 16/16 A2992 RMK AO2 T01610156 $"
    },
    {
        "raw": "SPECI KPUB 120950Z 11010KT 1 1/2SM -SN OVC011 M12/M14 A3007 RMK AO2 CIG 007V013 P0000"
    },
    {
        "raw": "SPECI KMCF 120946Z 14004KT 5SM BR BKN170 18/17 A2995 RMK AO2A SLPNO ALSTG ESTMD FZRANO $"
    },
    {
        "raw": "SPECI CYHE 120953Z AUTO 11017G29KT 6SM -SN FEW250 M11/M20 A3037 RMK SLP288"
    },
    {
        "raw": "SPECI KPTN 120952Z AUTO 06011KT 3SM +RA BR SCT006 BKN016 OVC035 08/08 A2999 RMK AO2 LTG DSNT ALQDS TSE04 P0041 $"
    },
    {
        "raw": "SPECI KOZR 121011Z AUTO 32006KT 10SM BKN012 OVC017 15/15 A2994 RMK AO2 SLP139"
    },
    {
        "raw": "SPECI KMRH 120951Z AUTO 02018G23KT 2 1/2SM RA BR BKN005 OVC015 06/04 A3008 RMK AO2 PK WND 02026/0941 RAB40 P0002 I1000 T00560044 TSNO"
    },
    {
        "raw": "SPECI RCMQ 121012Z 36008KT 0800 R36/1800U FG BKN002 OVC010 17/16 Q1013 BECMG TL1200 0200 FG BKN002 RMK A2992 APCH CLD BKN002"
    },
    {
        "raw": "SPECI KDLH 121016Z 33008KT 4SM -SN OVC024 M25/M29 A3044 RMK AO2 P0000 T12501294 $"
    },
    {
        "raw": "SPECI CYQM 121017Z 25012KT 2 1/2SM -SHSN DRSN BKN020 M16/M19 A2993 RMK SC7 CVCTV CLD EMBD SLP144"
    },
    {
        "raw": "SPECI KVBG 120949Z AUTO 28007KT 3SM BR OVC004 11/11 A2998 RMK AO2 RAE34 SLP155 TSNO $"
    },
    {
        "raw": "SPECI KSBY 121015Z AUTO 3SM -SN BR FEW011 BKN040 OVC090 M02/M04 A3026 RMK AO2 P0000 T10171039 $"
    },
    {
        "raw": "METAR KMRJ 120935Z AUTO 34006KT 7SM SCT030 M17/M20 A3037 RMK AO2"
    },
    {
        "raw": "SPECI SBGL 121015Z 33002KT 8000 BKN010 OVC100 24/21 Q1013"
    },
    {
        "raw": "METAR K9A5 120935Z AUTO 03003KT 7SM BKN005 OVC016 06/06 A3001 RMK AO2 T00600060"
    },
    {
        "raw": "METAR KFKR 120935Z AUTO 36009KT 10SM OVC040 M08/M12 A3025 RMK AO2"
    },
    {
        "raw": "METAR KAHQ 120935Z AUTO 33005KT 10SM BKN110 M22/M25 A3058 RMK AO2 T12211250"
    },
    {
        "raw": "METAR KTYQ 120935Z AUTO 05009KT 10SM BKN036 BKN060 OVC080 M08/M13 A3021 RMK AO2 T10851128"
    },
    {
        "raw": "METAR KFZG 120935Z AUTO 00000KT 4SM OVC009 18/17 A2995 RMK AO2 T01760170"
    },
    {
        "raw": "METAR K11R 120935Z AUTO 36017G22KT 7SM OVC009 00/M01 A3012 RMK AO2 T00001011"
    },
    {
        "raw": "METAR KCOM 120935Z AUTO 02015KT 10SM BKN012 OVC020 M05/M07 A3018 RMK AO2 T10471070"
    },
    {
        "raw": "METAR VILK 120930Z 32004KT 3000 HZ SCT100 BKN200 26/14 Q1013 NOSIG"
    },
    {
        "raw": "METAR VEBN 120930Z 29003KT 3500 HZ NSC 27/11 Q1012 NOSIG"
    },
    {
        "raw": "METAR KWDR 120935Z AUTO 08004KT 2SM +DZ OVC003 13/13 A3001 RMK AO2"
    },
    {
        "raw": "METAR KBWD 120935Z AUTO 8SM OVC012 M04/M07 A3020 RMK AO1"
    },
    {
        "raw": "METAR KDZJ 120935Z AUTO 00000KT 1SM BR SCT001 OVC020 11/11 A2997 RMK AO2 T01140113"
    },
    {
        "raw": "SPECI CYNE 121016Z AUTO 15003KT 2 1/2SM HZ CLR M40/M45 A3050 RMK SLP374"
    },
    {
        "raw": "SPECI CYTZ 121015Z AUTO 02008G17KT 350V060 9SM -SN FEW041 BKN081 OVC092 M11/M19 A3043 RMK SLP310"
    },
    {
        "raw": "METAR KBDU 120935Z AUTO 01004KT 3SM -SN OVC015 M15/M17 A3001 RMK AO2"
    },
    {
        "raw": "METAR KHBV 120935Z AUTO 36009KT 10SM OVC005 03/01 A3004 RMK AO2 T00320005"
    },
    {
        "raw": "SPECI CYEK 121018Z AUTO 22008KT 6SM -SN OVC004 M33/M37 A3054 RMK SLP346"
    },
    {
        "raw": "METAR KASL 120935Z AUTO 02007KT 10SM OVC009 00/M01 A3021 RMK AO1 T00031010"
    },
    {
        "raw": "SPECI KMYL 121017Z AUTO 36004KT 2 1/2SM -SN BR BKN028 OVC036 M07/M09 A2972 RMK AO2 P0000 T10721094"
    },
    {
        "raw": "METAR KAMN 120939Z AUTO 00000KT 3SM -SN SCT023 BKN028 OVC036 M08/M10 A3035 RMK AO2 T10821096"
    },
    {
        "raw": "METAR KBYL 120935Z AUTO 00000KT 1 1/2SM OVC002 M02/M02 A3008 RMK AO1"
    },
    {
        "raw": "METAR KAXX 120935Z AUTO 18003KT 10SM CLR 00/M09 A2990 RMK AO2 T10031092"
    },
    {
        "raw": "SPECI KCIU 120939Z AUTO 10010KT 2SM -SN OVC032 M16/M19 A3043 RMK AO2 P0000 FZRANO"
    },
    {
        "raw": "METAR KGHG 120935Z AUTO 28007G13KT 260V320 10SM CLR M09/M17 A3026 RMK AO2"
    },
    {
        "raw": "METAR KLNQ 120935Z AUTO 01008KT 1/2SM OVC001 13/13 A2993 RMK AO2 T01300125"
    },
    {
        "raw": "METAR KTTF 120937Z AUTO 05010KT 10SM SCT075 OVC085 M08/M13 A3029 RMK AO2 T10801130"
    },
    {
        "raw": "METAR KSCD 120935Z AUTO 00000KT 3SM BR OVC003 08/08 A2999 RMK AO2 T00770077"
    },
    {
        "raw": "METAR KVDI 120935Z AUTO 00000KT 1/4SM FG OVC003 17/15 A2995 RMK AO2"
    },
    {
        "raw": "METAR KVHN 120935Z AUTO 23007KT 10SM CLR 03/M03 A3002 RMK AO2 T00261032"
    },
    {
        "raw": "METAR KOLY 120935Z AUTO 33009KT 10SM BKN029 OVC047 M06/M11 A3028 RMK AO2 T10631115"
    },
    {
        "raw": "METAR KCCO 120935Z AUTO 00000KT 5SM BR BKN002 OVC020 16/14 A2997 RMK AO2 T01570144"
    },
    {
        "raw": "METAR KMZZ 120935Z AUTO 05009KT 10SM OVC046 M08/M12 A3023 RMK AO2 T10831120"
    },
    {
        "raw": "METAR WIBB 120930Z 05009KT 9999 SCT016 32/24 Q1006"
    },
    {
        "raw": "METAR KW22 120935Z AUTO 00000KT 10SM OVC033 M03/M03 A3006 RMK AO2"
    },
    {
        "raw": "METAR KCTY 120935Z AUTO 00000KT 1/2SM FG BKN007 18/18 A2996 RMK AO2 T01850184"
    },
    {
        "raw": "METAR KCVC 120935Z AUTO 04003KT 10SM BKN018 OVC026 14/13 A2997 RMK AO2"
    },
    {
        "raw": "METAR KGVE 120935Z AUTO 02004KT 2 1/2SM OVC009 M02/M02 A3024 RMK AO1 P0001 T10211021"
    },
    {
        "raw": "METAR KFMM 120935Z AUTO 05012KT 10SM OVC010 M19/M22 A3013 RMK AO2 T11911221"
    },
    {
        "raw": "METAR KFIN 120935Z AUTO 00000KT 10SM CLR 18/17 A2995 RMK AO2 T01770174"
    },
    {
        "raw": "METAR KSEF 120935Z AUTO 00000KT 10SM SCT007 OVC095 19/18 A2999 RMK AO2 T01900185"
    },
    {
        "raw": "METAR KX26 120935Z AUTO 00000KT 7SM OVC090 19/19 A2999 RMK AO2 T01890186"
    },
    {
        "raw": "METAR KXLL 120935Z AUTO 02006KT 10SM CLR M06/M12 A3034 RMK AO2"
    },
    {
        "raw": "METAR KMDQ 120935Z AUTO 35011KT 1 3/4SM BR OVC003 00/00 A3007 RMK A02 T00031001"
    },
    {
        "raw": "METAR KFPY 120935Z AUTO 2SM BR OVC002 19/18 A2994 RMK AO2 T01870182"
    },
    {
        "raw": "METAR KGVT 120935Z AUTO 35009KT 7SM OVC009 M05/M06 A3025 RMK AO2 TSNO T10481063"
    },
    {
        "raw": "METAR KHCR 120935Z AUTO 00000KT 4SM -SN SCT005 BKN015 OVC020 00/00 A2974 RMK AO2"
    },
    {
        "raw": "METAR KHII 120935Z AUTO 11011KT 10SM BKN045 20/M02 A2979 RMK AO2"
    },
    {
        "raw": "METAR KHSG 120935Z AUTO 00000KT 5SM OVC048 M27/M29 A3010 RMK AO2 T12661294 PWINO"
    },
    {
        "raw": "METAR KPVW 120935Z AUTO 04014KT 10SM OVC010 M11/M14 A3018 RMK AO2 T11151136"
    },
    {
        "raw": "METAR KJKA 120935Z AUTO 36003KT 2SM BR OVC002 15/15 A2993 RMK AO2 T01500147"
    },
    {
        "raw": "METAR KJYR 120935Z AUTO 01008KT 10SM FEW070 M21/M23 A3052 RMK AO2"
    },
    {
        "raw": "METAR K6R3 120935Z AUTO 01008G17KT 2 1/2SM BR OVC005 02/02 A3010 RMK AO2 T00170017"
    },
    {
        "raw": "METAR KADT 120935Z AUTO 07005KT 10SM SCT030 OVC040 M16/M19 A3039 RMK AO2 T11561188"
    },
    {
        "raw": "METAR KBMT 120935Z AUTO 35016G19KT 5SM BR OVC005 04/04 A3004 RMK AO2 T00430038"
    },
    {
        "raw": "METAR KDWX 120935Z AUTO 18021G30KT 10SM SCT035 BKN043 OVC055 01/M03 A2979 RMK AO2 T00111031"
    },
    {
        "raw": "METAR KZPH 120935Z AUTO 13004KT 7SM CLR 18/17 A2998 RMK A02 T01760173"
    },
    {
        "raw": "METAR KNY0 120935Z AUTO 29006KT 10SM CLR M18/M22 A3033 RMK AO2"
    },
    {
        "raw": "METAR WIDN 120930Z 01012KT 9999 SCT017 29/23 Q1009 NOSIG"
    },
    {
        "raw": "SPECI KPSC 120938Z AUTO 36014KT 2SM -SN BR OVC023 M07/M09 A3026 RMK AO2 P0000 T10671089"
    },
    {
        "raw": "METAR WIPP 120930Z 35008KT 5000 TSRA BKN008 FEW010CB 23/22 Q1009 RMKCB TO E AND SE"
    },
    {
        "raw": "METAR WAHS 120930Z 31015KT 8000 SCT013 29/26 Q1008 NOSIG"
    },
    {
        "raw": "METAR VIDD 120930Z 25004KT 1200 FU SCT100 27/16 Q1014 NOSIG"
    },
    {
        "raw": "METAR KOGS 120935Z AUTO 33005KT 10SM CLR M19/M24 A3044 RMK AO2"
    },
    {
        "raw": "METAR WIEE 120930Z 28007KT 9999 FEW020 31/23 Q1008 NOSIG"
    },
    {
        "raw": "METAR KLVN 120935Z AUTO 32008KT 10SM CLR M23/M27 A3054 RMK AO2"
    },
    {
        "raw": "METAR KBQP 120935Z AUTO 01004KT 7SM OVC007 M01/M02 A3019 RMK AO2 T10111020"
    },
    {
        "raw": "METAR KOKZ 120935Z AUTO 12005KT 7SM -RA BR SCT004 BKN065 OVC100 16/16 A2995 RMK AO2 P0005 T01600159"
    },
    {
        "raw": "METAR KRWV 120935Z AUTO 5SM BR OVC007 M02/M03 A3017 RMK AO2 T10171028"
    },
    {
        "raw": "METAR KMQS 120935Z AUTO 02004KT 10SM CLR M06/M12 A3030 RMK AO2"
    },
    {
        "raw": "METAR KMWO 120935Z AUTO 02007KT 10SM OVC026 M06/M10 A3022 RMK AO2 T10631104"
    },
    {
        "raw": "METAR KGYF 120936Z AUTO 01027KT 5SM -VCTSRA BR SCT004 BKN032 OVC055 19/18 A2982 RMK AO2 LTG DSNT E SE AND W P0021 T01940184"
    },
    {
        "raw": "METAR KHEQ 120935Z AUTO 04012KT 10SM SCT003 SCT016 M17/M20 A3025 RMK AO2"
    },
    {
        "raw": "METAR KHTO 120935Z AUTO 35009KT 10SM CLR M07/M14 A3029 RMK AO2 T10671145"
    },
    {
        "raw": "METAR K3AU 120935Z AUTO 36011G18KT 10SM OVC036 M13/M17 A3041 RMK AO2"
    },
    {
        "raw": "METAR KHDC 120935Z AUTO 36010KT 7SM -RA OVC006 05/05 A3001 RMK AO2 LTG DSNT SW P0005"
    },
    {
        "raw": "METAR KRYW 120935Z AUTO 1/2SM FZFG OVC004 M03/M03 A3015 RMK AO2 T10301035"
    },
    {
        "raw": "METAR KSME 120935Z AUTO 35003KT 10SM OVC007 M02/M04 A3013 RMK AO2"
    },
    {
        "raw": "METAR KBBG 120935Z AUTO 36006KT 4SM BR OVC005 M09/M09 A3028 RMK AO2"
    },
    {
        "raw": "METAR KMLE 120935Z AUTO 35005KT 10SM CLR M19/M24 A3060 RMK AO2 T11951241"
    },
    {
        "raw": "METAR KJZP 120935Z AUTO 00000KT 1/4SM FG OVC002 11/11 A3000 RMK AO2 T01060106"
    },
    {
        "raw": "METAR LFQG 120930Z AUTO 00000KT CAVOK M02/M06 Q1019"
    },
    {
        "raw": "METAR LFRZ 120930Z AUTO 06015KT CAVOK M00/M03 Q1018 TEMPO BKN007"
    },
    {
        "raw": "METAR KRBO 120935Z AUTO 36013G19KT 3SM BR OVC006 04/03 A3005 RMK AO2 T00350030"
    },
    {
        "raw": "METAR KSTE 120935Z AUTO 30004KT 4SM UP BKN040 OVC048 M18/M21 A3039 RMK AO2 T11851210"
    },
    {
        "raw": "METAR KLWB 120935Z AUTO 10005KT 7SM UP OVC011 M02/M03 A3009 RMK AO2 T10211034"
    },
    {
        "raw": "METAR RCKH 120930Z 31008KT 9000 FEW016 BKN045 BKN150 22/17 Q1012 NOSIG RMK A2990"
    },
    {
        "raw": "SPECI KBOK 120940Z AUTO 15006KT 1 3/4SM BR OVC002 08/08 A2995 RMK AO2 PNO $"
    },
    {
        "raw": "METAR KE42 120935Z AUTO 04011KT 10SM SCT019 OVC043 M12/M15 A3026 RMK AO2 T11191149"
    },
    {
        "raw": "METAR KLNN 120935Z AUTO 08007G15KT 10SM OVC080 M06/M14 A3028 RMK AO1 T10651145"
    },
    {
        "raw": "METAR KI74 120935Z AUTO 03010KT 10SM OVC050 M06/M10 A3018 RMK AO2"
    },
    {
        "raw": "METAR WADL 120930Z 22003KT 6000 -RA FEW015CB BKN016 27/25 Q1009 TEMPO TL1100 -RA RMK CB TO NW"
    },
    {
        "raw": "METAR KCBE 120935Z AUTO 10003KT 10SM OVC050 M03/M08 A3030 RMK AO2 T10281083"
    },
    {
        "raw": "METAR KGBG 120935Z AUTO 33009KT 10SM SCT026 M16/M19 A3042 RMK AO2 T11621190"
    },
    {
        "raw": "METAR KGPC 120935Z AUTO 02007KT 10SM BKN029 OVC049 M07/M12 A3023 RMK AO2 T10741119"
    },
    {
        "raw": "METAR KI63 120935Z AUTO 34011KT 10SM BKN045 BKN110 M14/M17 A3039 RMK AO2"
    },
    {
        "raw": "METAR KTNB 120935Z AUTO 00000KT 10SM M01/M01 A3005 RMK AO2 T10151015"
    },
    {
        "raw": "SPECI KCSG 120939Z AUTO 34005KT 2SM R06/1800VP6000FT BR BKN002 OVC046 14/14 A2995 RMK AO2 T01440139"
    },
    {
        "raw": "METAR KE16 120935Z AUTO 30004KT 10SM FEW020 OVC029 09/09 A3000 RMK AO2 PWINO PNO"
    },
    {
        "raw": "METAR KI43 120955Z AUTO 03004KT 10SM BKN019 OVC026 M02/M05 A3013 RMK AO2"
    },
    {
        "raw": "METAR KLYO 120935Z AUTO 02015G21KT 10SM SCT013 M17/M20 A3042 RMK AO2 T11731199"
    },
    {
        "raw": "SPECI KGZH 120939Z AUTO 34006KT 1 3/4SM BR OVC002 11/09 A2997 RMK AO2 T01110094"
    },
    {
        "raw": "METAR KDKB 120936Z AUTO 34009KT 10SM OVC070 M14/M17 A3036 RMK AO2"
    },
    {
        "raw": "SPECI KPDX 120939Z 10018G24KT 3SM -SN SCT022 OVC036 M02/M06 A2999 RMK AO2 PK WND 10029/0908 TWR VIS 4 P0000 T10221056"
    },
    {
        "raw": "SPECI KTVC 120939Z AUTO 00000KT 2 1/2SM -SN BR OVC027 M10/M12 A3038 RMK AO2 P0000 T11001122"
    },
    {
        "raw": "METAR KJOT 120935Z AUTO 36007KT 10SM OVC065 M10/M13 A3036 RMK AO2 T11051135"
    },
    {
        "raw": "METAR KSNL 120935Z AUTO 36013KT 10SM -SN OVC011 M09/M11 A3033 RMK AO2 T10901113"
    },
    {
        "raw": "METAR KSBO 120935Z AUTO 00000KT 1/2SM FG OVC002 17/17 A2996 RMK AO2"
    },
    {
        "raw": "METAR KTIP 120935Z AUTO 35009KT 10SM OVC046 M09/M12 A3032 RMK AO2 T10941120"
    },
    {
        "raw": "METAR KTMA 120935Z AUTO 00000KT 5SM BR BKN014 BKN022 OVC030 17/17 A2993 RMK AO2 T01660165"
    },
    {
        "raw": "METAR KLMO 120935Z AUTO 05005KT 4SM -SN SCT012 OVC018 M15/M18 A3007 RMK AO2 T11461177"
    },
    {
        "raw": "METAR KLOM 120935Z AUTO 02006KT 10SM CLR M06/M13 A3030 RMK AO2 T10601132"
    },
    {
        "raw": "METAR KMNH 120935Z AUTO 20007KT 5SM -SN OVC009 M15/M17 A2988 RMK AO2"
    },
    {
        "raw": "METAR KFYJ 120935Z AUTO 35003KT 4SM BKN008 BKN013 BKN050 M01/M02 A3025 RMK AO1 P0001 T10101016"
    },
    {
        "raw": "METAR KSBD 120940Z AUTO 24004KT 4SM HZ OVC014 12/09 A2998 RMK AO2 T01180087"
    },
    {
        "raw": "METAR KDCY 120935Z AUTO 02008KT 10SM OVC028 M06/M11 A3024 RMK AO2 T10621112"
    },
    {
        "raw": "METAR KDNN 120935Z AUTO 34003KT 3SM -RA SCT004 BKN008 OVC014 07/06 A3001 RMK AO2"
    },
    {
        "raw": "METAR KSJS 120935Z AUTO 00000KT 2SM BR OVC003 M03/M03 A3008 RMK AO2 T10301030"
    },
    {
        "raw": "METAR KOPN 120935Z AUTO 00000KT 10SM OVC017 15/15 A2997 RMK AO2"
    },
    {
        "raw": "METAR KGCD 120935Z AUTO 27005KT 2SM -SN BKN008 OVC012 M08/M08 A2990 RMK AO2 T10761085"
    },
    {
        "raw": "METAR KNOW 120935Z AUTO 07005KT 10SM OVC033 M01/M07 A3009 RMK AO2 T10101071"
    },
    {
        "raw": "METAR KSVC 120935Z AUTO 33008KT 10SM CLR 01/M09 A2997 RMK AO2 T00051089"
    },
    {
        "raw": "METAR KLGC 120935Z AUTO 00000KT 1/2SM FG OVC003 15/14 A2997 RMK AO2 T01450140"
    },
    {
        "raw": "METAR KASW 120935Z AUTO 02006KT 10SM OVC065 M08/M13 A3028 RMK AO2"
    },
    {
        "raw": "METAR K2V6 120939Z AUTO 08008KT 10SM OVC009 M17/M18 A3018 RMK AO2"
    },
    {
        "raw": "METAR KFXY 120935Z AUTO 33009KT 10SM CLR M22/M26 A3052 RMK AO2"
    },
    {
        "raw": "METAR KFFX 120939Z AUTO 08003KT 2 1/2SM -SN OVC019 M10/M11 A3034 RMK AO2 T10981113"
    },
    {
        "raw": "METAR KGYY 120935Z AUTO 00000KT 10SM OVC060 M08/M14 A3035 RMK AO2 T10761143"
    },
    {
        "raw": "METAR K20V 120935Z AUTO 26005KT 10SM SCT022 BKN033 OVC070 02/M03 A2980 RMK AO2"
    },
    {
        "raw": "METAR KSWW 120935Z AUTO 00000KT 10SM OVC007 M07/M07 A3021 RMK AO2 T10661070"
    },
    {
        "raw": "METAR KTAZ 120935Z AUTO 35015KT 10SM OVC039 M12/M15 A3035 RMK AO2"
    },
    {
        "raw": "METAR KVGC 120935Z AUTO 00000KT 10SM CLR M21/M23 A3033 RMK AO2"
    },
    {
        "raw": "METAR KGIC 120935Z AUTO 10007KT 1 1/2SM OVC026 M10/M11 A2994 RMK AO1"
    },
    {
        "raw": "METAR KT35 120935Z AUTO 35012G17KT 4SM BR OVC006 M02/M02 A3021 RMK AO2 T10161025"
    },
    {
        "raw": "METAR KF44 120935Z AUTO 36008KT 3SM BR OVC006 M02/M03 A3021 RMK AO2"
    },
    {
        "raw": "METAR KPVF 120935Z AUTO 17006KT 1SM OVC004 07/07 A2988 RMK AO1 VSBY 1/2V3 P0001"
    },
    {
        "raw": "METAR KOGA 120935Z AUTO 05008KT 10SM -SN BKN037 OVC049 M19/M23 A3034 RMK AO2 T11951230"
    },
    {
        "raw": "METAR KAPY 120935Z AUTO 31009KT 4SM BR OVC005 06/06 A3008 RMK AO2 T00620060 TSNO"
    },
    {
        "raw": "METAR KPMU 120935Z AUTO 35009G14KT 6SM BR OVC005 M02/M03 A3017 RMK AO2"
    },
    {
        "raw": "METAR KFBR 120935Z AUTO 25010KT 10SM -SN SCT039 BKN046 OVC060 01/M02 A2974 RMK AO2 T00051017"
    },
    {
        "raw": "METAR KL35 120935Z AUTO 27008KT 10SM CLR 01/M02 A2996 RMK AO2"
    },
    {
        "raw": "METAR KQEP 120940Z AUTO 24001KT 9000 HZ CLR 08/M06 A3027 RMK A02 TSNO"
    },
    {
        "raw": "METAR KQEY 120940Z AUTO 27003KT 9999 CLR 10/M06 A2994 RMK A02 TSNO"
    },
    {
        "raw": "METAR KQEQ 120940Z AUTO 23001KT 4800 HZ CLR 07/M02 A3030 RMK A02 TSNO"
    },
    {
        "raw": "METAR KQEW 120940Z AUTO 25003KT 9999 CLR 13/M09 A3021 RMK A02 TSNO"
    },
    {
        "raw": "METAR KBMC 120935Z AUTO 06003KT 7SM OVC012 04/02 A2975 RMK AO1 T00400015"
    },
    {
        "raw": "METAR K7BM 120935Z AUTO 27011G21KT 240V300 10SM CLR 00/M11 A2979 RMK AO2"
    },
    {
        "raw": "METAR KSLR 120935Z AUTO 36008KT 5SM BR OVC007 M03/M04 A3027 RMK AO2 T10341039"
    },
    {
        "raw": "METAR KPKV 120937Z AUTO 01018G26KT 3SM BR OVC006 03/01 A3005 RMK AO2"
    },
    {
        "raw": "METAR KMGR 120930Z AUTO 00000KT 1/2SM FG SCT001 BKN007 16/15 A2994 RMK AO2"
    },
    {
        "raw": "METAR KXBP 120935Z AUTO 01011G19KT 10SM OVC012 M05/M07 A3029 RMK AO2 T10461071"
    },
    {
        "raw": "METAR KAQO 120935Z AUTO 01011KT 7SM OVC011 M02/M04 A3016 RMK AO2"
    },
    {
        "raw": "METAR KHJH 120935Z AUTO 03009KT 10SM CLR M18/M22 A3051 RMK AO2 T11851219"
    },
    {
        "raw": "METAR KBVS 120935Z AUTO 31006KT 10SM OVC060 M02/M09 A3009 RMK A01"
    },
    {
        "raw": "METAR KQFV 120940Z AUTO 31002KT 9999 CLR 04/M07 A3027 RMK A02 TSNO"
    },
    {
        "raw": "METAR KADS 120935Z AUTO 10SM OVC011 M05/M07 A3026 RMK AO2 T10471071"
    },
    {
        "raw": "METAR KAFF 120758Z 16009KT 7SM -SN BR OVC002 M14/M16 A2993 RMK AO2A SLP189 T11431163"
    },
    {
        "raw": "METAR WIMM 120930Z 32007KT 320V020 9999 SCT018 30/25 Q1008 NOSIG"
    },
    {
        "raw": "METAR K4O4 120935Z AUTO 33008KT 7SM OVC012 M03/M05 A3023 RMK AO2"
    },
    {
        "raw": "METAR WADD 120930Z 26008KT 9999 SCT017 29/24 Q1008 NOSIG"
    },
    {
        "raw": "METAR WIHH 120930Z 03003KT 6000 SCT017 29/24 Q1008 NOSIG"
    },
    {
        "raw": "SPECI KFNT 120941Z AUTO 08009KT 4SM -SN SCT035 BKN070 OVC090 M08/M12 A3033 RMK AO2 P0001 T10831117"
    },
    {
        "raw": "SPECI KRDD 120940Z AUTO 22003KT 1/4SM FG VV003 08/07 A2988 RMK AO2 T00780067"
    },
    {
        "raw": "SPECI KDNL 120941Z AUTO 08006KT 3SM RA BR OVC002 17/16 A2997 RMK AO2 P0004 T01670156"
    },
    {
        "raw": "METAR KVES 120935Z AUTO 03009KT 10SM OVC050 M07/M10 A3020 RMK AO2"
    },
    {
        "raw": "METAR KOWX 120935Z AUTO 05014KT 10SM OVC065 M06/M11 A3026 RMK AO1"
    },
    {
        "raw": "METAR PAAD 120935Z AUTO 00000KT 10SM SCT120 M31/M34 A3034 RMK AO2 T13071336"
    },
    {
        "raw": "METAR PKWA 120940Z AUTO 09010KT 10SM SCT016 SCT029 A2986 RMK AO2"
    },
    {
        "raw": "METAR KOAR 120935Z AUTO 31008G14KT 7SM SCT043 10/07 A3001 RMK AO2"
    },
    {
        "raw": "METAR KBIE 120935Z AUTO 02010G18KT 10SM OVC110 M19/M23 A3053 RMK AO2 T11901231"
    },
    {
        "raw": "METAR KLCQ 120930Z AUTO 00000KT 1/4SM FG BKN003 OVC011 14/14 A2997 RMK AO2"
    },
    {
        "raw": "METAR KC62 120955Z AUTO 04009KT 10SM OVC070 M08/M11 A3027 RMK AO2 T10851115"
    },
    {
        "raw": "METAR KEDC 120935Z AUTO 35005KT 4SM BR OVC009 M02/M02 A3018 RMK AO2"
    },
    {
        "raw": "METAR KMMU 120935Z AUTO 34005KT 10SM CLR M08/M15 A3033 RMK AO2"
    },
    {
        "raw": "METAR CWCI 120900Z AUTO 14021G26KT M08/M10 RMK AO1 PK WND 12029/0821 SLP296 T10841095 56008"
    },
    {
        "raw": "METAR K8W2 120955Z AUTO 03005KT 10SM OVC034 M02/M05 A3023 RMK AO1 T10211050"
    },
    {
        "raw": "METAR KFOA 120935Z AUTO 35013KT 10SM BKN028 OVC038 M07/M11 A3029 RMK AO2"
    },
    {
        "raw": "METAR KL18 120955Z AUTO 00000KT 7SM OVC017 11/10 A2999 RMK AO2"
    },
    {
        "raw": "METAR KLZZ 120935Z AUTO 01005KT 7SM OVC010 M04/M05 A3017 RMK AO2 T10401053"
    },
    {
        "raw": "SPECI KTXK 120941Z AUTO 03008KT 9SM OVC010 00/M03 A3023 RMK AO2 CIG 008V014 T00001028"
    },
    {
        "raw": "SPECI SCCI 120940Z AUTO 04006KT 350V080 9999 FEW098/// BKN120/// OVC170/// 09/02 Q1011"
    },
    {
        "raw": "METAR K27K 120955Z AUTO 36003KT 1 3/4SM OVC008 M06/M06 A3014 RMK AO1"
    },
    {
        "raw": "SPECI PASY 120936Z AUTO 01030G44KT 2 3/4SM -PL FEW012 SCT019 BKN027 OVC034 M A2914 RMK AO2 VIS 2 1/2V7 PLE16SNB16E30PLB30 SLPNO PNO FZRANO $"
    },
    {
        "raw": "SPECI KNHK 120925Z AUTO 04016KT 3SM -SN SCT009 BKN031 OVC050 M02/M04 A3026 RMK AO2 P0000 T10171044 $"
    },
    {
        "raw": "METAR KHHW 120935Z AUTO 00000KT 7SM OVC010 M06/M09 A3025 RMK AO2"
    },
    {
        "raw": "SPECI KBYI 120939Z AUTO 00000KT 4SM BR SCT002 OVC017 02/01 A2973 RMK AO2 UPE07RAB07E23 P0000 T00170006"
    },
    {
        "raw": "SPECI PATE 120940Z AUTO 07022KT 2SM -SN BR OVC012 M20/M22 A2989 RMK AO2 PK WND 07026/0938 P0000 FZRANO"
    },
    {
        "raw": "METAR KETN 120935Z AUTO 35011G15KT 10SM OVC009 M07/M09 A3021 RMK AO2 T10701085"
    },
    {
        "raw": "SPECI KFBG 120938Z AUTO 03007G15KT 10SM -UP BKN005 OVC015 02/02 A3011 RMK AO2 UPB33 BKN V OVC SLP200"
    },
    {
        "raw": "METAR VEAT 120930Z 36003KT 3500 HZ NSC 28/13 Q1012 NOSIG"
    },
    {
        "raw": "METAR KTBR 120935Z AUTO 31004KT 1/4SM FG OVC003 15/14 A2996 RMK AO2 T01500143"
    },
    {
        "raw": "METAR KSOA 120930Z AUTO 00000KT 10SM OVC005 M02/M03 A3014 RMK AO2"
    },
    {
        "raw": "SPECI KPIA 120938Z 36005G15KT 10SM BKN016 OVC110 M13/M17 A3039"
    },
    {
        "raw": "METAR VEGT 120930Z 33002KT 4500 HZ FEW020 26/11 Q1011 NOSIG"
    },
    {
        "raw": "SPECI KMAE 120942Z AUTO 29006KT 2 1/2SM -RA BR SCT012 BKN046 OVC060 12/12 A2991 RMK AO2 P0006 T01220117"
    },
    {
        "raw": "SPECI KRWL 120942Z AUTO 3/4SM -SN VV011 M14/M18 A2977 RMK AO2 P0003 T11391178"
    },
    {
        "raw": "SPECI KOGD 120938Z AUTO 19005KT 6SM RA BR FEW007 OVC015 04/02 A2974 RMK AO2 P0004 T00440022"
    },
    {
        "raw": "METAR KSBS 120935Z AUTO 00000KT 3SM SCT026 OVC034 M01/M01 A2980 RMK AO1 T10111011"
    },
    {
        "raw": "SPECI KCHS 120939Z 07004KT 1/2SM R15/4500V5500FT FG VV002 15/15 A2998"
    },
    {
        "raw": "SPECI KLSF 120936Z AUTO 00000KT 3/4SM R33/4000V5000FT BR BKN001 BKN041 OVC210 12/11 A2994 RMK AO2 CIG 001V210 BKN001 V SCT CIG 000 RWY15 SLP143 $"
    },
    {
        "raw": "SPECI LPBJ 120939Z 29006KT 2000 1200W BCFG BKN003 11/11 Q1025"
    },
    {
        "raw": "SPECI LEMH 120943Z 22013KT 2000 BR BKN002 14/13 Q1016"
    },
    {
        "raw": "SPECI KRXE 120940Z AUTO 04008KT 3SM -SN BR OVC029 M09/M11 A2976 RMK AO2 P0000 T10891106"
    },
    {
        "raw": "SPECI KELN 120938Z AUTO 14004KT 2SM -SN OVC019 M08/M11 A3014 RMK AO2 P0000 T10831111"
    },
    {
        "raw": "SPECI KPNS 120938Z AUTO 35006KT 10SM OVC008 16/15 A2992 RMK AO2 CIG 006V010 T01560150"
    },
    {
        "raw": "SPECI KPRB 120941Z AUTO 20010KT 10SM BKN025 BKN032 OVC043 12/09 A2993 RMK AO2 RAE02 P0000 T01170094"
    },
    {
        "raw": "SPECI KCAO 120940Z AUTO 07009KT 5SM -SN BR OVC006 M13/M15 A3006 RMK AO2 P0000 T11331150"
    },
    {
        "raw": "SPECI KMOB 120940Z AUTO 35011KT 3SM BR OVC002 12/12 A2996"
    },
    {
        "raw": "SPECI KMNM 120939Z AUTO 35006KT 4SM -SN BR BKN014 OVC026 M14/M16 A3040 RMK AO2 P0000 FZRANO $"
    },
    {
        "raw": "SPECI KSWO 120938Z AUTO 02012KT 2 1/2SM -SN SCT011 OVC017 M09/M12 A3038 RMK AO2 P0000 T10891122"
    },
    {
        "raw": "METAR KSUW 120935Z AUTO 32008KT 10SM OVC036 M22/M27 A3057 RMK AO2 T12251267"
    },
    {
        "raw": "SPECI KBAN 120938Z AUTO 28003KT 3/4SM -SN FEW010 FEW019 OVC024 01/M02 A2979 RMK AO2 P0001 T00061022"
    },
    {
        "raw": "SPECI KPOE 120934Z AUTO 36010KT 7SM -SN OVC006 00/00 A3009 RMK AO2 SNE05UPB05E19SNB19 SLP194"
    },
    {
        "raw": "METAR YBWW 120930Z AUTO 08009KT 9999 // SCT083 27/14 Q1011 RF00.0/000.0"
    },
    {
        "raw": "METAR KCDD 120935Z AUTO 00000KT 5SM -SN SCT028 BKN037 M28/M31 A3052 RMK AO2 TSNO"
    },
    {
        "raw": "SPECI KSBP 120938Z AUTO 11007KT 2SM -RA BR FEW007 OVC012 11/11 A2997 RMK AO2 P0007 T01110106"
    },
    {
        "raw": "METAR LEMO 120930Z 26008KT 230V290 9999 SCT006 15/15 Q1024 NOSIG"
    },
    {
        "raw": "SPECI KFAT 120940Z 09004KT 3SM RA BR BKN050 OVC060 13/11 A2990 RMK AO2 P0011 T01280106 $"
    },
    {
        "raw": "METAR YWLM 120930Z AUTO 03006KT 9999 // NCD 27/21 Q1006"
    },
    {
        "raw": "SPECI KHAO 120939Z AUTO 01004KT 4SM HZ SCT020 BKN030 OVC041 M07/M09 A3021 RMK AO2 SNE39 P0000 T10671094"
    },
    {
        "raw": "METAR YPLM 120930Z AUTO 29014KT 9999 // NCD 31/20 Q1003 RF00.0/000.0"
    },
    {
        "raw": "SPECI CYBU 120941Z AUTO 25006KT 5SM -SN OVC042 M30/M34 A3033 RMK SLP330"
    },
    {
        "raw": "METAR ZBAA 120930Z 15001MPS 4000 HZ NSC 10/M01 Q1019 NOSIG"
    },
    {
        "raw": "METAR YFRT 120930Z AUTO 16015KT 9999 // NCD 23/08 Q1014 RF00.0/000.0"
    },
    {
        "raw": "SPECI KQHY 120936Z AUTO 34003KT 2 3/4SM BR OVC004 16/16 A2993 RMK AO2 VIS 2 3/4V6 SLPNO"
    },
    {
        "raw": "SPECI KHUT 120939Z AUTO 36012G20KT 10SM SCT015 OVC032 M15/M19 A3042 RMK AO2 T11501189"
    },
    {
        "raw": "SPECI KRIC 120937Z 03010KT 5SM -PL BR SCT007 BKN030 OVC048 M01/M02 A3023"
    },
    {
        "raw": "METAR ZWWW 120930Z 01002MPS 4000 FU NSC M03/M07 Q1024 NOSIG"
    },
    {
        "raw": "METAR VTCC 120930Z 06005KT 030V100 9000 FEW035 31/11 Q1010 NOSIG"
    },
    {
        "raw": "SPECI KOQT 120933Z AUTO 00000KT 10SM BKN007 OVC012 03/02 A3004 RMK AO2 T00330022"
    },
    {
        "raw": "METAR VDSR 120930Z 32005KT 290V350 9999 FEW017 32/06 Q1009"
    },
    {
        "raw": "METAR VYYY 120930Z NIL"
    },
    {
        "raw": "METAR ETNL 121020Z 36007KT 9999 FEW023 M04/M10 Q1036 BLU+BLU+"
    },
    {
        "raw": "METAR ETNS 121020Z 05010KT 9999 M04/M10 Q1038 BLU+BLU+"
    },
    {
        "raw": "METAR ETGG 121020Z AUTO 05008KT 9999 // ////// M02/M10 Q1038 ///"
    },
    {
        "raw": "METAR ETSN 121020Z 07010KT 9999 FEW015 M06/M11 Q1028 BLU+BLU+"
    },
    {
        "raw": "METAR ETNW 121020Z 11006KT 9999 FEW015 SCT035 M05/M08 Q1036 BLU+BLU+"
    },
    {
        "raw": "METAR ETHL 121020Z 07014KT 9999 FEW012 M07/M12 Q1024 BLU+BLU+"
    },
    {
        "raw": "METAR ETWM 121020Z 08005KT 9999 FEW015 M05/M09 Q1036 BLU+"
    },
    {
        "raw": "METAR LEBA 120930Z 27006KT 230V300 9999 FEW020 16/12 Q1023"
    },
    {
        "raw": "SPECI KBRO 120941Z AUTO 31016G22KT 10SM OVC005 05/03 A3001 RMK AO2 LTG DSNT E AND SE T00500033"
    },
    {
        "raw": "SPECI KAIZ 120942Z AUTO 36009KT 320V030 10SM FEW018 OVC034 M12/M16 A3039 RMK AO2 FZRANO"
    },
    {
        "raw": "METAR LEAO 120930Z 28012KT 250V310 9999 SCT017 11/08 Q1022"
    },
    {
        "raw": "METAR YBRK 120930Z AUTO 03006KT 9999 // NCD 25/16 Q1010 RF00.0/000.0"
    },
    {
        "raw": "METAR ETNN 121020Z 08011KT 9999 M04/M10 Q1031 BLU+"
    },
    {
        "raw": "METAR LEGT 120930Z 28014KT 260V320 9999 FEW015 12/06 Q1020"
    },
    {
        "raw": "METAR ENSH 121020Z 28006KT 9999 VCSH SCT030 BKN040 02/M06 Q1025 RMK WIND 150FT 24012KT"
    },
    {
        "raw": "METAR YPDN 120930Z 27006KT 9999 FEW020 SCT195 BKN205 29/25 Q1006"
    },
    {
        "raw": "METAR COR LIPC 120955Z 07016KT 9999 SCT030 BKN060 06/01 Q1023"
    },
    {
        "raw": "METAR ZBAD 120930Z 13001MPS 3500 HZ NSC 10/00 Q1020 NOSIG"
    },
    {
        "raw": "METAR LEVS 120930Z 25012KT 9999 FEW025 12/07 Q1020"
    },
    {
        "raw": "METAR COR EGPD 121020Z AUTO 14012KT 9999 BKN036 01/M06 Q1035 NOSIG"
    },
    {
        "raw": "METAR EGPU 121020Z 14032G42KT CAVOK 04/M05 Q1025"
    },
    {
        "raw": "METAR VVCT 120930Z NIL"
    },
    {
        "raw": "METAR VVDN 120930Z 02011KT 9999 FEW015 23/16 Q1014 NOSIG"
    },
    {
        "raw": "METAR KFFA 121055Z AUTO 04011G22KT 010V070 7SM OVC011 05/05 A3012 RMK AO2 T00490049"
    },
    {
        "raw": "METAR ETNT 121020Z 09013KT 9999 FEW021 M04/M10 Q1038 BLU+BLU+"
    },
    {
        "raw": "METAR ETSL 121020Z 05014KT 9999 FEW010 M08/M11 Q1025 BLU+BLU+"
    },
    {
        "raw": "METAR KCPF 121035Z AUTO 00000KT 3SM BR OVC002 M02/M02 A3010 RMK AO2"
    },
    {
        "raw": "SPECI KCEC 121025Z AUTO 15008KT 8SM OVC015 09/08 A2997 RMK AO2 T00890078"
    },
    {
        "raw": "SPECI KLBX 121025Z AUTO 01013KT 3SM -RA BR OVC006 03/01 A3002 RMK AO2 PK WND 01026/0959 RAB01 CIG 004V009 P0000 T00280011"
    },
    {
        "raw": "METAR YBTL 120930Z AUTO 08008KT 9999 // SCT059 27/22 Q1009"
    },
    {
        "raw": "METAR EHGR 121025Z AUTO 07012KT 010V110 9999 NCD M05/M09 Q1033 BLU NOSIG RMK BLACK FIXED WING"
    },
    {
        "raw": "METAR EGWU 121023Z 11017G27KT 9999 FEW030 SCT130 01/M07 Q1030 NOSIG"
    },
    {
        "raw": "METAR YGLA 120930Z AUTO 07009KT 9999 // NCD 26/17 Q1011 RF00.0/000.0"
    },
    {
        "raw": "METAR ENBO 121020Z 28020KT 9999 VCSH FEW007 SCT012CB BKN025 02/00 Q1027 TEMPO 1000 SHSNGS VV008"
    },
    {
        "raw": "METAR LIBD 121020Z 02005KT 350V060 9999 FEW040 09/01 Q1022"
    },
    {
        "raw": "METAR YCIN 120930Z AUTO 33008KT 9999 // SCT059 31/22 Q1005 RF00.0/000.0"
    },
    {
        "raw": "METAR EHEH 121025Z AUTO 06010KT 9999 NCD M04/M08 Q1033 BLU NOSIG"
    },
    {
        "raw": "METAR ETHS 121020Z 08007KT 9999 R09/0400N FEW030 M06/M08 Q1036 BLU+BLU+"
    },
    {
        "raw": "METAR PMDY 121025Z AUTO 21031G35KT 7SM BKN022 BKN027 OVC090 23/21 A2955 RMK AO2 PK WND 21035/1024 RAB04E18 P0000"
    },
    {
        "raw": "METAR EHDL 121025Z AUTO 07010KT 020V190 9999 OVC012 M05/M08 Q1035 GRN"
    },
    {
        "raw": "METAR ETHC 121020Z 06006KT 9999 FEW040 M04/M09 Q1036 BLU+BLU+"
    },
    {
        "raw": "SPECI KBKV 121026Z AUTO 00000KT 1SM BR VV014 17/16 A2997 RMK AO2 T01720161"
    },
    {
        "raw": "SPECI KLRD 121027Z AUTO 01007KT 10SM OVC008 06/04 A3007 RMK AO2 CIG 005V011 PWINO $"
    },
    {
        "raw": "METAR EGXC 121020Z 13012KT CAVOK 00/M04 Q1033 NOSIG RMK BLU BLU"
    },
    {
        "raw": "METAR KMNI 121035Z AUTO 04010G14KT 3SM BR OVC004 08/08 A3004 RMK AO2"
    },
    {
        "raw": "METAR ESSA 121020Z 29005KT 9999 BKN017 M06/M09 Q1034 R01R/410254 R08/410164 NOSIG"
    },
    {
        "raw": "METAR KEAN 121015Z AUTO 13006KT 5SM -SN OVC043 M21/M24 A3010 RMK AO2 T12101245"
    },
    {
        "raw": "METAR EFKU 121020Z 16006KT 5000 -SN OVC005 M13/M14 Q1026"
    },
    {
        "raw": "METAR K1S5 121035Z AUTO 01009G15KT 10SM OVC033 M06/M13 A3021 RMK AO2 T10611132"
    },
    {
        "raw": "METAR K1A5 121035Z AUTO 00000KT 10SM -DZ SCT011 SCT021 OVC034 12/10 A2999 RMK AO2 T01150104"
    },
    {
        "raw": "SPECI KAKO 121028Z AUTO 09012KT 2SM -SN BR OVC008 M18/M21 A3009 RMK AO2 CIG 004V012 P0000 T11831206 $"
    },
    {
        "raw": "METAR EHBK 121025Z AUTO 06010KT 9999 NCD M04/M10 Q1031 NOSIG"
    },
    {
        "raw": "METAR EHJR 121025Z AUTO ///24KT //// // ///////// M02/M09 Q1038 RE// W///H18"
    },
    {
        "raw": "METAR KPO1 121030Z AUTO 25008KT 10SM M31/M34 A3044"
    },
    {
        "raw": "METAR LIPE 121020Z 09014KT 9999 BKN040 05/M02 Q1024"
    },
    {
        "raw": "METAR KMBO 121055Z AUTO 34005KT 3SM BR OVC004 00/00 A3013 RMK AO2"
    },
    {
        "raw": "METAR LTBU 121020Z 31010KT 9999 SCT030 BKN080 02/M05 Q1020"
    },
    {
        "raw": "METAR LTBJ 121020Z 32015KT 9999 SCT035 15/02 Q1016 NOSIG"
    },
    {
        "raw": "METAR EHLE 121025Z AUTO 06009KT 9999 NCD M06/M09 Q1036 R05/911093 NOSIG"
    },
    {
        "raw": "METAR UBBB 121030Z 18018KT 9999 BKN011 10/07 Q1012 R88/CLRD// NOSIG"
    },
    {
        "raw": "METAR KJYO 121035Z AUTO 04008KT 10SM OVC048 M02/M07 A3031 RMK AO2"
    },
    {
        "raw": "METAR ENGM 121020Z 02006KT CAVOK M11/M15 Q1039 NOSIG"
    },
    {
        "raw": "METAR LTCC 121020Z 10006KT 030V150 CAVOK 14/05 Q1016 NOSIG"
    },
    {
        "raw": "SPECI KMYV 121027Z AUTO 00000KT 1 3/4SM BR CLR 07/07 A2989 RMK AO2 T00720067"
    },
    {
        "raw": "METAR KSPF 121035Z AUTO 14003KT 7SM BKN060 OVC095 M25/M30 A3024 RMK AO2 PWINO"
    },
    {
        "raw": "METAR LTCG 121020Z 00000KT CAVOK 20/01 Q1009 NOSIG"
    },
    {
        "raw": "METAR KATW 121035Z AUTO 31008KT 4SM -SN BKN038 OVC045 M15/M20 A3035 RMK AO2"
    },
    {
        "raw": "METAR KEKX 121035Z AUTO 00000KT 10SM OVC011 M05/M06 A3018 RMK AO2 T10541065"
    },
    {
        "raw": "METAR LICC 121020Z 27003KT 160V310 CAVOK 17/06 Q1020"
    },
    {
        "raw": "METAR EHSC 121025Z AUTO 09020KT 9999 ///////// M03/M07 Q1033 W05/H8"
    },
    {
        "raw": "METAR KHNZ 121035Z AUTO 03006KT 3SM UP BKN005 BKN010 OVC014 M01/M01 A3017 RMK AO2 P0003 T10101011"
    },
    {
        "raw": "METAR EHKD 121025Z AUTO 09014KT 9999 NCD M04/M08 Q1036 BLU NOSIG"
    },
    {
        "raw": "SPECI KAMG 121028Z AUTO 00000KT 1 1/4SM BR OVC002 16/15 A2994 RMK AO2 T01560150 $"
    },
    {
        "raw": "METAR KEMV 121035Z AUTO 5SM -RA OVC007 00/M01 A3022 RMK AO2 T10021008 TSNO"
    },
    {
        "raw": "METAR EHRD 121025Z AUTO 08011KT 040V110 9999 NCD M04/M08 Q1034 R06/821095 NOSIG"
    },
    {
        "raw": "METAR ETHN 121020Z 09009KT 9999 M08/M11 Q1028 BLU+BLU+"
    },
    {
        "raw": "METAR ETMN 121020Z 08011KT 9999 FEW015 M04/M08 Q1038 BLU+BLU+"
    },
    {
        "raw": "METAR KJVL 121015Z AUTO 33006KT 5SM -SN SCT019 SCT025 OVC042 M14/M17 A3038 RMK AO2"
    },
    {
        "raw": "SPECI KISM 121025Z AUTO 00000KT 1/2SM FG CLR 18/18 A2998 RMK AO2 $"
    },
    {
        "raw": "SPECI TXKF 121024Z 25011KT 9999 VCSH BKN018 BKN043 20/18 Q1018"
    },
    {
        "raw": "SPECI KINT 121023Z AUTO 05006KT 10SM -FZRA SCT009 OVC031 00/M01 A3015 RMK AO2 P0002 I1001 T00001006"
    },
    {
        "raw": "SPECI KPDT 121022Z AUTO 31007KT 1 1/4SM -SN BR OVC020 M09/M10 A3013 RMK AO2 P0002 T10891100"
    },
    {
        "raw": "SPECI PAPO 121025Z AUTO 01022KT 3SM -SN CLR M24/M27 A3020 RMK AO2 PK WND 01026/1010 P0000 FZRANO"
    },
    {
        "raw": "SPECI KGRK 121025Z 02005KT 7SM OVC007 M04/M05 A3017 RMK AO2A SLP228 WND DATA ESTMD"
    },
    {
        "raw": "METAR LIPY 121020Z AUTO 11007KT 070V130 9999 OVC032/// 06/M00 Q1023"
    },
    {
        "raw": "METAR EHGG 121025Z AUTO 08011KT 050V110 9999 NCD M04/M09 Q1037 NOSIG"
    },
    {
        "raw": "SPECI KTBN 121019Z AUTO 34009KT 10SM -SN FEW009 OVC016 M11/M14 A3032 RMK AO2 SNE18SNB19 OVC V BKN SLP291"
    },
    {
        "raw": "METAR LTAF 121020Z 19005KT 140V260 CAVOK 21/10 Q1013 NOSIG"
    },
    {
        "raw": "SPECI PACZ 121026Z AUTO 09040G62KT 1/4SM +SN FG BKN007 00/00 A2926"
    },
    {
        "raw": "SPECI KLUK 121024Z AUTO 36006KT 4SM BR OVC027 M06/M08 A3023 RMK AO2 SNE20 P0000 T10611083"
    },
    {
        "raw": "SPECI PASO 121024Z AUTO 03003KT 3SM -SN BR OVC023 01/00 A3008 RMK AO2 P0001 T00060000 TSNO"
    },
    {
        "raw": "SPECI CYAT 121028Z AUTO 32006KT 6SM -SN BKN055 OVC068 M25/M28 A3069 RMK SLP395"
    },
    {
        "raw": "METAR VEPT 121030Z 32005KT 1800 FU NSC 23/14 Q1011 NOSIG"
    },
    {
        "raw": "SPECI YSNF 121025Z AUTO 13013KT 7000 -SHRA BKN014 OVC020 20/18 Q1015"
    },
    {
        "raw": "METAR LTAG 121020Z 16005KT 9999 SCT035 23/10 Q1013 NOSIG"
    },
    {
        "raw": "SPECI UMIO 121027Z 01008G13MPS 1600 R05/1600N SN BLSN BKN031 M13/M16 Q1013 R05/454026 NOSIG RMK QFE742/0989"
    },
    {
        "raw": "SPECI KSAV 121024Z AUTO 00000KT 3SM BR OVC002 14/13 A2995"
    },
    {
        "raw": "SPECI KFFC 121017Z AUTO 00000KT 1/2SM FG BKN002 BKN025 OVC043 13/13 A2997 RMK AO2 T01330133"
    },
    {
        "raw": "SPECI CYAY 121029Z AUTO 34021G29KT 6SM -SN BKN027 OVC076 M01/M04 A2956 RMK SLP013"
    },
    {
        "raw": "METAR OMAA 121000Z 29005KT 270V340 CAVOK 26/13 Q1012 NOSIG"
    },
    {
        "raw": "METAR OMDB 121000Z 29006KT CAVOK 25/14 Q1013 NOSIG"
    },
    {
        "raw": "SPECI KONT 121016Z 23006KT 3SM -RA BR BKN006 OVC014 11/10 A2996 RMK AO2 CIG 004V010 P0000 T01110100"
    },
    {
        "raw": "METAR KAFP 121015Z AUTO 01006KT 7SM -DZ OVC008 03/02 A3013 RMK AO2 T00270018"
    },
    {
        "raw": "SPECI KINL 121016Z AUTO 26003KT 10SM BKN028 M32/M34 A3048"
    },
    {
        "raw": "SPECI KMGM 121016Z AUTO 32008KT 4SM BR OVC002 12/11 A2998"
    },
    {
        "raw": "SPECI KHRT 121026Z AUTO 36003KT 1SM R18/5500V6000FT BR OVC002 16/14 A2990 RMK AO2 SLP127 $"
    },
    {
        "raw": "SPECI KSMN 121029Z AUTO 34008KT 2 1/2SM -SN BR OVC018 M12/M13 A2991 RMK AO2 P0000 FZRANO"
    },
    {
        "raw": "METAR KAQP 121013Z AUTO 25005KT 10SM CLR M29/M33 A3061 RMK AO2"
    },
    {
        "raw": "METAR LTAP 121020Z 23024KT 9999 SCT040 BKN090 16/M01 Q1008 NOSIG"
    },
    {
        "raw": "SPECI KDTW 121026Z 05006KT 5SM -SN FEW008 BKN025 OVC045 M08/M13 A3033 RMK AO2 P0000 T10831128"
    },
    {
        "raw": "METAR YGFN 121000Z AUTO 05005KT 9999 // NCD 24/18 Q1010"
    },
    {
        "raw": "METAR LTBA 121020Z 01008KT 340V040 9999 BKN035 04/M02 Q1020 NOSIG"
    },
    {
        "raw": "SPECI YBAS 121023Z AUTO 12015KT 3200 VCTS +RA SCT010 SCT024 BKN032 25/25 Q1009 RETS"
    },
    {
        "raw": "SPECI KIWD 121026Z AUTO 25007KT 2SM -SN SCT022 OVC031 M21/M24 A3042 RMK AO2 P0000 FZRANO"
    },
    {
        "raw": "METAR LTCE 121020Z 09007KT 060V130 CAVOK 04/M04 Q1016 NOSIG"
    },
    {
        "raw": "METAR KBRY 121035Z AUTO 00000KT 10SM OVC013 M05/M06 A3017 RMK AO1"
    },
    {
        "raw": "METAR LCEN 121020Z 27004KT 9999 FEW025 20/07 Q1015 NOSIG"
    },
    {
        "raw": "METAR YMTG 121000Z AUTO 31005KT 9999 // SCT024 SCT045 14/12 Q1010"
    },
    {
        "raw": "SPECI KTOI 121025Z AUTO 34006KT 1 1/4SM BR OVC002 16/13 A2996 RMK AO2 T01560133"
    },
    {
        "raw": "METAR YOLD 121000Z AUTO 19008KT 9999 // NCD 24/09 Q1009"
    },
    {
        "raw": "SPECI KTLH 121027Z AUTO 00000KT 1/4SM FG VV002 18/18 A2993 RMK AO2 T01780178"
    },
    {
        "raw": "SPECI KNQI 121023Z AUTO 35010KT 2SM -RA BR OVC006 03/02 A3006 RMK AO2 RAB05 CIG 004V007 P0000 T00280017 $"
    },
    {
        "raw": "METAR NFTL 121000Z NIL"
    },
    {
        "raw": "METAR NIUE 121000Z AUTO 12005KT // 25/24 Q1013"
    },
    {
        "raw": "METAR NTAA 121000Z AUTO 07007KT 020V100 9000 -RA FEW031/// BKN072/// BKN100/// ///CB 24/22 Q1013 TEMPO 04025G45KT 1500 TSRA SCT010 BKN013CB OVC050"
    },
    {
        "raw": "SPECI CYNM 121024Z AUTO 33009G15KT 3SM -SN BKN030 OVC040 M22/M25 A3042 RMK SLP337"
    },
    {
        "raw": "METAR OOSA 120950Z 02008KT 300V070 CAVOK 32/03 Q1012 NOSIG"
    },
    {
        "raw": "METAR OTBD 121000Z AUTO 35013KT CAVOK 27/08 Q1013 NOSIG"
    },
    {
        "raw": "METAR KHFY 121035Z AUTO 03003KT 10SM SCT034 OVC050 M07/M11 A3023 RMK AO2 T10731110"
    },
    {
        "raw": "METAR OTBH 120956Z 35014KT 9999 CLR 27/07 A2993 RMK AO2A SLP137 ?"
    },
    {
        "raw": "METAR OYSN 121000Z NIL"
    },
    {
        "raw": "METAR KMFV 121015Z AUTO 03005KT 2SM -SN OVC008 M02/M03 A3023 RMK AO2 P0001 T10201030"
    },
    {
        "raw": "METAR KMWK 121015Z AUTO 07004KT 7SM -RA OVC008 01/00 A3016 RMK AO2 T00051002"
    },
    {
        "raw": "METAR KMTV 121015Z AUTO 00000KT 10SM OVC007 00/00 A3020 RMK AO2 T10021002"
    },
    {
        "raw": "METAR K24A 121015Z AUTO 14005KT 2 1/2SM +RA BR SCT002 SCT010 OVC018 10/10 A2998 RMK AO2 VIS 1 3/4V4 LTG DSNT SE P0005 T00990098"
    },
    {
        "raw": "METAR K35A 121015Z AUTO 06009KT 7SM -RA BKN009 OVC014 04/03 A3013 RMK A02 P0001 T00350026"
    },
    {
        "raw": "METAR K14Y 121015Z AUTO 00000KT 10SM CLR M28/M31 A3053 RMK AO2"
    },
    {
        "raw": "METAR KMGN 121015Z AUTO 07003KT 3SM -SN SCT028 BKN040 OVC046 M13/M15 A3040 RMK AO2 T11331150"
    },
    {
        "raw": "METAR KCFS 121015Z AUTO 08005KT 2 1/2SM -SN BKN013 BKN021 OVC027 M09/M11 A3035 RMK AO2 T10911110"
    },
    {
        "raw": "METAR KY51 121015Z AUTO 32007KT 7SM SCT023 SCT035 OVC080 M21/M22 A3040 RMK AO1 T12101225"
    },
    {
        "raw": "METAR MUCF 120959Z AUTO 10005KT 18/18 Q1014"
    },
    {
        "raw": "METAR DNKN 121000Z 06009KT CAVOK 28/03 Q1017 NOSIG"
    },
    {
        "raw": "METAR KSUT 121015Z AUTO 01008G15KT 7SM OVC005 06/05 A3007 RMK AO2 T00600053"
    },
    {
        "raw": "METAR KI69 121015Z AUTO 36005KT 10SM BKN011 OVC017 M07/M08 A3019 RMK AO2 T10661083"
    },
    {
        "raw": "METAR YPXM 121000Z AUTO 29005KT 9999 // NCD 28/22 Q1010"
    },
    {
        "raw": "METAR NFTF 121000Z 08005KT 9999 FEW016 26/25 Q1015"
    },
    {
        "raw": "METAR KMDZ 121015Z AUTO 33010KT 2SM -SN OVC025 M21/M24 A3036 RMK AO2 T12121241"
    },
    {
        "raw": "METAR KSPA 121015Z AUTO 04010KT 10SM OVC009 02/01 A3009 RMK AO2"
    },
    {
        "raw": "METAR KRFI 121015Z AUTO 33007KT 3/4SM BR OVC002 M01/M02 A3019 RMK AO2 T10141019"
    },
    {
        "raw": "METAR KEFT 121015Z AUTO 32008KT 10SM -SN SCT026 BKN046 M16/M19 A3035 RMK AO2 T11651195"
    },
    {
        "raw": "METAR KPOV 121015Z AUTO 05010KT 10SM OVC065 M07/M12 A3019 RMK AO2 T10751124 PWINO"
    },
    {
        "raw": "METAR K96D 121015Z AUTO 24003KT 10SM CLR M32/M35 A3053 RMK AO2"
    },
    {
        "raw": "METAR KLYV 121015Z AUTO 00000KT 10SM M22/M27 A3057 RMK AO2"
    },
    {
        "raw": "METAR KD25 121015Z AUTO 31005KT 4SM -SN BKN040 OVC050 M22/M25 A3035 RMK AO2 T12171250"
    },
    {
        "raw": "SPECI KVPC 121017Z AUTO 00000KT 4SM BR OVC003 09/08 A2999 RMK AO2 CIG 002V006 T00940083"
    },
    {
        "raw": "METAR YBRM 121000Z AUTO 29009KT 9999 // SCT028 30/22 Q1006"
    },
    {
        "raw": "METAR K5A6 121015Z AUTO 01008KT 7SM OVC004 00/M01 A3013 RMK AO2 T10031010"
    },
    {
        "raw": "METAR DNPO 121000Z 22003KT 8000 BKN011 31/25 Q1011 NOSIG"
    },
    {
        "raw": "METAR KBDN 121015Z AUTO 00000KT 10SM -SN BKN007 BKN011 OVC031 M11/M12 A2999 RMK AO2"
    },
    {
        "raw": "METAR KMZH 121015Z AUTO 00000KT 10SM CLR M25/M29 A3050 RMK AO2"
    },
    {
        "raw": "METAR KFQD 121015Z AUTO 04005KT 10SM -DZ OVC013 02/02 A3011 RMK AO2"
    },
    {
        "raw": "METAR KELK 121015Z AUTO 02010KT 10SM -SN BKN013 OVC024 M10/M12 A3030 RMK AO2 T11001125"
    },
    {
        "raw": "METAR KPTS 121015Z AUTO 01011G19KT 10SM -SN OVC015 M12/M14 A3038 RMK AO2 T11161140"
    },
    {
        "raw": "METAR KPBH 121015Z AUTO 00000KT 4SM HZ OVC029 M22/M25 A3038 RMK AO2 T12181249"
    },
    {
        "raw": "METAR KRAW 121015Z AUTO 02010KT 10SM OVC030 M14/M17 A3042 RMK AO2 T11381169"
    },
    {
        "raw": "METAR KIFA 121015Z AUTO 31011KT 10SM CLR M24/M28 A3053 RMK AO2 T12371279"
    },
    {
        "raw": "METAR KFFM 121015Z AUTO 31003KT CLR M29/M32 A3053 RMK AO2 PWINO"
    },
    {
        "raw": "METAR KF70 121015Z AUTO 22007KT BKN006 OVC011 10/10 A2998 RMK AO1"
    },
    {
        "raw": "METAR KEDE 121015Z AUTO 04008KT 5SM BR OVC007 04/04 A3016 RMK AO2 T00370037"
    },
    {
        "raw": "METAR KLRY 121015Z AUTO 02010KT SCT016 OVC037 M13/M16 A3046 RMK AO2"
    },
    {
        "raw": "METAR KCTZ 121015Z AUTO 04007KT 5SM OVC006 03/03 A3013 RMK AO2 T00320032"
    },
    {
        "raw": "METAR KS33 121015Z AUTO 32005KT 7SM -SN SCT015 BKN046 OVC080 M10/M12 A3007 RMK AO2"
    },
    {
        "raw": "METAR KACB 121015Z AUTO 00000KT 2 1/2SM -SN BKN026 OVC031 M11/M12 A3040 RMK AO2 T11081125"
    },
    {
        "raw": "SPECI KHTL 121025Z AUTO 35004KT 1 1/2SM -SN BR OVC015 M12/M14 A3034"
    },
    {
        "raw": "METAR KVVV 121015Z AUTO 29003KT 10SM M27/M31 A3059 RMK AO2"
    },
    {
        "raw": "METAR KDNS 121015Z AUTO 00000KT 10SM CLR M25/M27 A3058 RMK AO2"
    },
    {
        "raw": "METAR KD39 121015Z AUTO 28004KT 10SM CLR M28/M31 A3055 RMK AO2 T12801306"
    },
    {
        "raw": "METAR DNYO 121000Z 00000KT CAVOK 33/01 Q1013"
    },
    {
        "raw": "METAR SBBV 121000Z 08007KT 9999 FEW010 OVC080 24/20 Q1011"
    },
    {
        "raw": "METAR SBNT 121000Z 17005KT 9999 SCT023 25/24 Q1011"
    },
    {
        "raw": "METAR KOKV 121015Z AUTO 03003KT 10SM OVC046 M03/M06 A3025 RMK AO2"
    },
    {
        "raw": "METAR KCKI 121015Z AUTO 02004KT 1 1/4SM -DZ OVC004 09/08 A3005 RMK AO2"
    },
    {
        "raw": "METAR KCNB 121015Z AUTO 31005KT 10SM CLR M26/M30 A3060 RMK AO2 T12611297"
    },
    {
        "raw": "METAR SBDN 121000Z 10008KT 060V130 9999 SCT045 BKN080 20/20 Q1014"
    },
    {
        "raw": "METAR SBML 120900Z 08008KT CAVOK 21/20 Q1015"
    },
    {
        "raw": "METAR KPHN 121015Z AUTO 04005KT 10SM SCT048 SCT060 OVC075 M10/M13 A3036 RMK AO2"
    },
    {
        "raw": "METAR SBME 121000Z 06004KT CAVOK 25/25 Q1014"
    },
    {
        "raw": "METAR SBAR 121000Z 12007KT CAVOK 27/19 Q1013"
    },
    {
        "raw": "METAR SBCT 121000Z 25003KT 9999 SCT014 OVC090 17/16 Q1018"
    },
    {
        "raw": "METAR SBMG 120900Z 10002KT 9999 FEW020 BKN100 19/18 Q1013"
    },
    {
        "raw": "METAR SAEZ 120900Z 23002KT 9999 BKN015 SCT100 21/20 Q1012 NOSIG"
    },
    {
        "raw": "METAR SBLB 120900Z AUTO 04014KT 9999 NCD 27/22 Q1015 W27/S3"
    },
    {
        "raw": "METAR KS85 121010Z AUTO 28006KT 10SM M32/M36 A3043 RMK A01 Culbertson"
    },
    {
        "raw": "METAR K6S0 121010Z AUTO 00000KT 10SM FEW048 OVC060 M24/M28 A3017 RMK A01 Big Timber"
    },
    {
        "raw": "METAR SBSJ 121000Z 17001KT 4000 BR SCT005 20/18 Q1016"
    },
    {
        "raw": "METAR LATI 121020Z 33005KT 290V020 9999 BKN092 09/02 Q1021 NOSIG"
    },
    {
        "raw": "METAR ESNX 121020Z 27013KT CAVOK M04/M08 Q1024"
    },
    {
        "raw": "METAR SBFL 121000Z 29002KT 9999 FEW015 BKN100 22/22 Q1014"
    },
    {
        "raw": "METAR K06D 121015Z AUTO 23008KT 10SM CLR M36/ A3037 RMK AO2"
    },
    {
        "raw": "METAR SBUL 121000Z 09001KT 9999 -RA FEW004 BKN009 BKN100 19/18 Q1018"
    },
    {
        "raw": "METAR K2D5 121015Z AUTO 26005KT 10SM FEW026 SCT030 SCT035 M29/M32 A3055 RMK AO2"
    },
    {
        "raw": "METAR SBRB 121000Z 05002KT 9999 SCT003 23/22 Q1010"
    },
    {
        "raw": "METAR SBPJ 120900Z 33003KT 8000 -RA SCT015 BKN070 24/24 Q1011"
    },
    {
        "raw": "METAR SBMN 120900Z 30003KT 9999 FEW010 BKN080 25/24 Q1011"
    },
    {
        "raw": "METAR SBMQ 121000Z 34003KT 0800 FG OVC004 25/25 Q1010"
    },
    {
        "raw": "METAR K7S0 121015Z AUTO 14006KT 10SM M21/M26 A3025 RMK A01 Ronan"
    },
    {
        "raw": "METAR SBMT 121000Z 10006KT 9000 BKN009 19/17 Q1017"
    },
    {
        "raw": "METAR SBRJ 120900Z 01005KT 9000 NSC 23/22 Q1012"
    },
    {
        "raw": "METAR NSFA 121000Z NIL"
    },
    {
        "raw": "METAR K2W6 121015Z AUTO 05003KT 10SM BKN012 OVC044 M02/M04 A3029 RMK AO1"
    },
    {
        "raw": "METAR NFTV 121000Z NIL"
    },
    {
        "raw": "METAR TRPG 121000Z 10020KT 060V130 9999 FEW020 24/17 Q1015"
    },
    {
        "raw": "METAR KCOQ 121015Z AUTO 00000KT 10SM SCT008 SCT015 M26/M29 A3046 RMK AO2 TSNO"
    },
    {
        "raw": "METAR KAEG 121015Z AUTO 19004KT 10SM CLR 00/M11 A2990 RMK AO2 T10051110"
    },
    {
        "raw": "METAR KBWP 121015Z 00000KT 10SM BKN039 OVC048 M30/M34 A3061 RMK AO2 TSNO TEST"
    },
    {
        "raw": "METAR K4U6 121010Z AUTO 24008KT 10SM M32/M36 A3040 RMK A01 Circle"
    },
    {
        "raw": "METAR KBKN 121015Z AUTO 01016KT 4SM -SN OVC037 M11/M14 A3041 RMK AO2"
    },
    {
        "raw": "METAR K1R7 121015Z AUTO 36011G16KT 320V020 1SM BR OVC003 01/01 A3009 RMK AO2 PWINO"
    },
    {
        "raw": "METAR KAWG 121015Z AUTO 33013KT 10SM CLR M20/M22 A3046 RMK AO2"
    },
    {
        "raw": "METAR KMOX 121015Z AUTO 27003KT 10SM CLR M29/M34 A3058 RMK AO2"
    },
    {
        "raw": "METAR KCVX 121015Z AUTO 11004KT 4SM -SN OVC026 M11/M12 A3039 RMK AO2 T11101125"
    },
    {
        "raw": "METAR KLRO 121015Z AUTO 00000KT 1SM BR OVC003 12/12 A2999 RMK AO2"
    },
    {
        "raw": "METAR KIDI 121015Z AUTO 09007KT 10SM FEW065 OVC085 M07/M11 A3022 RMK A01"
    },
    {
        "raw": "SPECI PALG 121028Z AUTO 10SM FEW021 SCT033 01/M02 A2961 RMK AO2 FZRANO $"
    },
    {
        "raw": "METAR KSIF 121015Z AUTO 02004KT 3SM RA BKN005 BKN009 OVC013 00/00 A3018 RMK AO2 P0002 T00001001"
    },
    {
        "raw": "METAR YSSY 121000Z 14009KT 9000 -RA NSC 23/21 Q1007"
    },
    {
        "raw": "METAR KBBB 121015Z AUTO 34004KT 10SM CLR M30/M33 A3059 RMK AO2"
    },
    {
        "raw": "METAR KONM 121015Z AUTO 21005KT 10SM CLR 01/M10 A2991 RMK AO2 T00111105"
    },
    {
        "raw": "METAR KLNL 121015Z AUTO 00000KT 1 1/2SM -SN OVC012 M20/M22 A3034 RMK AO2 T11961225"
    },
    {
        "raw": "METAR YLEC 121000Z AUTO 14006KT 9999 // NCD 20/17 Q1009"
    },
    {
        "raw": "METAR KFSO 121015Z AUTO 00000KT 10SM CLR M20/M26 A3042 RMK AO2 T11991259"
    },
    {
        "raw": "METAR YBHI 121000Z AUTO 20009KT 9999 // BKN037 23/15 Q1008"
    },
    {
        "raw": "METAR KERY 121015Z AUTO 10005KT 4SM BR SCT031 BKN047 OVC065 M15/M16 A3039 RMK AO2 T11471161"
    },
    {
        "raw": "METAR KPJC 121015Z AUTO 01004KT 10SM BKN070 M06/M12 A3022 RMK AO2"
    },
    {
        "raw": "METAR YGEL 121000Z AUTO 16019KT 9999 // NCD 26/17 Q1007"
    },
    {
        "raw": "METAR KALM 121015Z AUTO 16006KT 10SM CLR 02/M10 A2991 RMK AO2"
    },
    {
        "raw": "METAR KRUG 121015Z AUTO 24007KT 10SM FEW018 SCT023 SCT030 M36/M39 A3044 RMK AO2"
    },
    {
        "raw": "METAR KGHW 121015Z AUTO 29004KT 10SM CLR M28/M30 A3054 RMK AO2"
    },
    {
        "raw": "METAR KGYH 121015Z AUTO 03015G19KT 10SM OVC007 02/02 A3007 RMK AO2"
    },
    {
        "raw": "METAR KOXV 121015Z AUTO 33013KT 10SM SCT120 SCT140 BKN230 M22/M25 A3053 RMK AO2"
    },
    {
        "raw": "METAR KBAX 121015Z AUTO 09007KT 3SM -SN SCT020 BKN033 OVC047 M10/M12 A3036 RMK AO2 T11021120"
    },
    {
        "raw": "METAR KTKX 121015Z AUTO 02013G22KT 10SM FEW022 OVC039 M04/M06 A3025 RMK AO2 TSNO"
    },
    {
        "raw": "METAR K7W4 121015Z AUTO 02003KT 5SM OVC009 M02/M03 A3025 RMK AO1 T10201026"
    },
    {
        "raw": "METAR KASJ 121015Z AUTO 02005KT 4SM -RA OVC005 01/01 A3019 RMK AO2 T00060006"
    },
    {
        "raw": "METAR KSEM 121015Z AUTO 34005KT 3SM BR OVC003 08/08 A3000 RMK AO2"
    },
    {
        "raw": "METAR KISO 121015Z AUTO 03009KT 5SM UP OVC006 03/02 A3014 RMK AO2 T00270023"
    },
    {
        "raw": "METAR KDLL 121015Z AUTO 33004KT 4SM -SN SCT038 BKN060 OVC070 M20/M23 A3040 RMK AO2 T12031228"
    },
    {
        "raw": "METAR KFRI 120956Z AUTO 03013KT 10SM CLR M17/M22 A3049 RMK AO2 SLP347 T11721223"
    },
    {
        "raw": "METAR KLDM 121015Z AUTO 09003KT 4SM -SN BKN036 OVC044 M10/M12 A3036 RMK AO2 T11031120"
    },
    {
        "raw": "METAR KHYW 121015Z AUTO 01006KT 5SM BR OVC005 07/07 A3007 RMK AO2"
    },
    {
        "raw": "METAR KY19 121015Z AUTO 24009KT 10SM BKN036 BKN042 M31/M34 A3045 RMK AO2"
    },
    {
        "raw": "METAR KACQ 121015Z AUTO 31008KT 10SM CLR M23/M27 A3055 RMK AO2"
    },
    {
        "raw": "METAR KX07 121015Z AUTO 00000KT 1/4SM FG SCT029 OVC036 17/17 A3000 RMK A01"
    },
    {
        "raw": "METAR KBKS 121015Z AUTO 36012G18KT 7SM OVC005 01/01 A3005 RMK AO2 T00140012"
    },
    {
        "raw": "METAR KS25 121015Z AUTO 25007KT 10SM CLR M31/M35 A3042 RMK AO2 PWINO"
    },
    {
        "raw": "METAR KOWA 121013Z AUTO 30008KT 10SM CLR M24/M27 A3052 RMK AO2"
    },
    {
        "raw": "METAR KHLX 121015Z AUTO 00000KT 5SM -SN OVC005 M01/M01 A3006 RMK AO2 T10101015"
    },
    {
        "raw": "METAR KHCO 121015Z AUTO 00000KT 10SM CLR M32/M36 A3054 RMK AO2"
    },
    {
        "raw": "METAR KHEG 121015Z AUTO 00000KT 17/17 A2998 RMK AO2"
    },
    {
        "raw": "METAR KRZT 121015Z AUTO 01006KT 7SM OVC021 M05/M08 A3016 RMK AO2 PWINO"
    },
    {
        "raw": "METAR KI23 121015Z AUTO 36011KT 5SM SCT008 SCT012 BKN021 M07/M10 A3016 RMK AO1"
    },
    {
        "raw": "METAR KJYM 121015Z AUTO 07006KT 10SM OVC070 M09/M11 A3025 RMK AO2 T10891109"
    },
    {
        "raw": "METAR KHAI 121015Z AUTO 07003KT 10SM OVC065 M08/M12 A3031 RMK AO2 T10821120"
    },
    {
        "raw": "METAR K0V4 121015Z AUTO 7SM OVC007 00/00 A3020 RMK AO1 T10021002"
    },
    {
        "raw": "METAR KAQX 121015Z AUTO 00000KT 1/4SM FG OVC002 15/15 A2996 RMK AO2"
    },
    {
        "raw": "METAR KLAL 121015Z AUTO 17005KT 10SM CLR 17/17 A2998 RMK AO2 PNO"
    },
    {
        "raw": "METAR KKY8 121015Z AUTO 10SM OVC024 M05/M06 A3024 RMK A01"
    },
    {
        "raw": "METAR KLKR 121015Z AUTO 02007KT 10SM OVC007 03/03 A3010 RMK AO2"
    },
    {
        "raw": "METAR KI68 121015Z AUTO 03007KT 10SM SCT009 BKN022 M07/M08 A3019 RMK AO1 T10661076"
    },
    {
        "raw": "METAR KIIB 121015Z AUTO 33013KT 10SM CLR M23/M26 A3048 RMK AO2 T12321260"
    },
    {
        "raw": "METAR KOLZ 121015Z AUTO 33009KT 10SM CLR M24/M27 A3048 RMK A01"
    },
    {
        "raw": "METAR KJZI 121015Z AUTO 06006KT 1/4SM FG OVC002 13/13 A2998 RMK AO2"
    },
    {
        "raw": "METAR KBDH 121015Z AUTO 30004KT 10SM CLR M25/M28 A3060 RMK AO2"
    },
    {
        "raw": "METAR K42J 121015Z AUTO 00000KT 5SM BR 18/18 A2996 RMK A01 TSNO"
    },
    {
        "raw": "SPECI KHLC 121015Z AUTO 05010KT 6SM HZ SCT009 OVC041 M17/M20 A3042 RMK AO2 T11721200 $"
    },
    {
        "raw": "METAR KHXD 121015Z AUTO 00000KT 1/4SM FG OVC002 14/13 A2996 RMK AO2"
    },
    {
        "raw": "METAR KUYF 121015Z AUTO 02011KT 10SM BKN026 OVC033 M06/M10 A3016 RMK AO2"
    },
    {
        "raw": "METAR FNBG 121000Z NIL"
    },
    {
        "raw": "METAR KIOB 121015Z AUTO 00000KT 10SM OVC006 M04/M05 A3015 RMK AO2"
    },
    {
        "raw": "METAR KTME 121015Z AUTO 01015KT 2 1/2SM -DZ OVC006 01/01 A3009 RMK AO2"
    },
    {
        "raw": "METAR KETC 121015Z AUTO 03010KT 2 1/2SM -DZ BR OVC006 01/00 A3017 RMK AO2 T00140004"
    },
    {
        "raw": "METAR KFBL 121015Z AUTO 30007KT 10SM CLR M23/M27 A3054 RMK AO2"
    },
    {
        "raw": "METAR KUES 121015Z AUTO 31007KT 3SM -SN OVC024 M15/M17 A3035 RMK AO2"
    },
    {
        "raw": "METAR KTKC 120935Z AUTO 30004KT 10SM CLR M24/M28 A3056 RMK AO2 T12421280"
    },
    {
        "raw": "METAR KTVK 120915Z AUTO 10SM CLR M18/M20 A3047 RMK AO2"
    },
    {
        "raw": "METAR KSOW 121015Z AUTO 19009KT 10SM FEW070 BKN095 BKN120 05/M06 A2996 RMK AO2"
    },
    {
        "raw": "METAR KAXA 121015Z AUTO 35010KT 10SM SCT100 M23/M25 A3051 RMK A01"
    },
    {
        "raw": "METAR KMAN 121015Z AUTO 29007KT 1 3/4SM BR OVC004 M01/M01 A2983 RMK A01"
    },
    {
        "raw": "METAR KHMT 121015Z AUTO 21006KT 2SM -RA BR OVC006 10/ A2997 RMK AO2 T0096////"
    },
    {
        "raw": "METAR KSNC 121015Z AUTO 34006KT 10SM CLR M10/M16 A3029 RMK AO2"
    },
    {
        "raw": "METAR KCLS 121015Z AUTO 02008KT 1 3/4SM +RA SCT005 OVC013 M02/M02 A3000 RMK AO2"
    },
    {
        "raw": "METAR KICL 121015Z AUTO 01015KT 10SM OVC100 M20/M24 A3057 RMK AO2"
    },
    {
        "raw": "METAR KFME 121015Z AUTO 02003KT 10SM OVC050 M02/M07 A3033 RMK AO1"
    },
    {
        "raw": "METAR KGDB 121015Z AUTO 29007KT 10SM CLR M25/M28 A3062 RMK AO2 T12511280"
    },
    {
        "raw": "METAR KSAZ 121015Z AUTO 28004KT 10SM CLR M30/M33 A3051 RMK AO2"
    },
    {
        "raw": "METAR KD95 120935Z AUTO 07005KT 3SM -SN SCT018 BKN025 OVC055 M09/M11 A3034 RMK AO2 T10951115"
    },
    {
        "raw": "METAR KCPT 121015Z AUTO 36021KT 10SM OVC015 M04/M07 A3024 RMK A01"
    },
    {
        "raw": "METAR KEFK 121015Z AUTO 30003KT 10SM CLR M20/M25 A3031 RMK AO2 T11961251"
    },
    {
        "raw": "METAR KLHZ 121015Z AUTO 03008KT 4SM BR BKN006 OVC012 00/00 A3019 RMK AO2 P0001"
    },
    {
        "raw": "METAR KRRL 120935Z AUTO 35004KT 5SM -SN BKN035 BKN041 OVC055 M19/M22 A3037 RMK AO2 T11911222 TSNO"
    },
    {
        "raw": "METAR FNSA 121000Z 00000KT 9999 SCT030 29/19 Q1017"
    },
    {
        "raw": "METAR KSDA 121015Z AUTO 01013KT 10SM SCT095 OVC120 M20/M24 A3057 RMK AO2"
    },
    {
        "raw": "METAR KTKV 121015Z AUTO 31003KT 3SM SCT024 OVC032 M21/M23 A3036 RMK AO2 T12071235 PWINO"
    },
    {
        "raw": "METAR OMRK 121000Z 28005KT 220V030 CAVOK 27/12 Q1013 A2994"
    },
    {
        "raw": "METAR KUKF 121015Z AUTO 10SM UP SCT007 BKN013 OVC019 00/00 A3019 RMK AO2"
    },
    {
        "raw": "METAR KSHL 121015Z AUTO 34005KT 10SM FEW065 BKN085 OVC100 M24/M26 A3054 RMK AO2"
    },
    {
        "raw": "METAR LFBT 120930Z AUTO 26014KT 9999 -RA OVC009 10/09 Q1015 TEMPO 27018G30KT 2000 RA"
    },
    {
        "raw": "METAR K4S2 121015Z AUTO 08004KT 3SM -SN BKN023 OVC030 M05/M07 A3021 RMK AO2"
    },
    {
        "raw": "METAR KPZQ 121015Z AUTO 12005KT 1SM SN OVC009 M10/M11 A3042 RMK AO2 T10971112"
    },
    {
        "raw": "METAR KDEH 121015Z AUTO 33009KT 10SM CLR M23/M25 A3045 RMK AO2"
    },
    {
        "raw": "METAR KMRT 121015Z AUTO 05010KT 10SM OVC039 M06/M10 A3018 RMK AO2 T10651105"
    },
    {
        "raw": "METAR KMUT 121015Z AUTO 33008KT 10SM CLR M17/M21 A3049 RMK AO2"
    },
    {
        "raw": "METAR KMVE 121015Z AUTO 00000KT 10SM CLR M26/M29 A3061 RMK AO2"
    },
    {
        "raw": "METAR KCDN 121015Z AUTO 01011KT 2 1/2SM -RA OVC006 05/04 A3009 RMK AO2"
    },
    {
        "raw": "METAR KEYF 120935Z AUTO 05006G17KT 5SM BR OVC006 04/03 A3010 RMK AO2 T00400034"
    },
    {
        "raw": "METAR KSUA 121015Z AUTO 00000KT 10SM CLR 20/18 A3000 RMK AO2"
    },
    {
        "raw": "METAR KMGC 121015Z AUTO 00000KT 10SM OVC070 M08/M13 A3034 RMK AO2"
    },
    {
        "raw": "METAR FNCA 121000Z 25006KT 9999 FEW010 SCT015 FEW023CB BKN050 30/24 Q1011"
    },
    {
        "raw": "METAR KC29 121015Z AUTO 32007KT 4SM SCT017 SCT022 OVC045 M16/M20 A3040 RMK AO1 T11651200"
    },
    {
        "raw": "METAR KISQ 121015Z AUTO 04005KT 5SM -SN SCT015 BKN035 OVC060 M12/M14 A3037 RMK AO2 T11171137"
    },
    {
        "raw": "METAR KJYG 121015Z AUTO 30007KT CLR M26/M29 A3057 RMK AO2 PWINO"
    },
    {
        "raw": "METAR OODQ 120950Z AUTO 08009KT CAVOK ////// 28/12 Q1012 NOSIG RMK RH38? 0"
    },
    {
        "raw": "METAR EBCV 120925Z AUTO 07013KT 9999 NCD M05/M09 Q1029 BLU"
    },
    {
        "raw": "METAR UAKD 120930Z NIL"
    },
    {
        "raw": "METAR FNDU 121000Z NIL"
    },
    {
        "raw": "METAR FNKU 121000Z 29007KT CAVOK 25/12 Q1019"
    },
    {
        "raw": "METAR KATP 121020Z AUTO 11004KT 8SM FEW018 SCT023 BKN085 23/22 A2986 RMK A01"
    },
    {
        "raw": "METAR KRBW 121015Z AUTO 04004KT 1/2SM FG OVC001 14/14 A2998 RMK AO2"
    },
    {
        "raw": "METAR KRCE 121015Z AUTO 02014G20KT 8SM -SN BKN012 OVC016 M10/M12 A3033 RMK AO2"
    },
    {
        "raw": "METAR UAAT 120930Z 03005MPS 9999 BKN050 M01/M02 Q1023 R02/950455 NOSIG RMK QFE715/0954"
    },
    {
        "raw": "METAR KCMY 121015Z AUTO 30004KT 5SM -SN M19/M22 A3047 RMK AO2 T11951220"
    },
    {
        "raw": "METAR KCAV 121015Z AUTO 33011KT 10SM BKN060 M23/M26 A3054 RMK A01"
    },
    {
        "raw": "METAR UCFL 120930Z NIL"
    },
    {
        "raw": "METAR KW81 120935Z AUTO 00000KT 2 1/2SM OVC005 M01/M02 A3021 RMK AO1 T10101021"
    },
    {
        "raw": "METAR KCBF 121015Z AUTO 36011KT 10SM FEW075 SCT090 M22/M26 A3054 RMK AO2"
    },
    {
        "raw": "METAR UAKK 120930Z 32001MPS 9999 -SN BKN042 M09/M12 Q1026 R05/820555 NOSIG RMK QFE722/0963"
    },
    {
        "raw": "METAR KANE 120935Z AUTO 31008KT 10SM CLR M22/M27 A3054 RMK AO2"
    },
    {
        "raw": "SPECI KONO 120933Z AUTO 34009KT 3SM -SN FEW014 OVC024 00/M03 A2986 RMK AO2 P0001 T00001033"
    },
    {
        "raw": "METAR LFRJ 120930Z AUTO 08008KT 5000 BR FEW009/// OVC018/// ///TCU 00/M01 Q1018 TEMPO FZRA OVC008"
    },
    {
        "raw": "METAR LJLJ 120930Z 13009KT 9999 FEW030 BKN040 M05/M09 Q1028 NOSIG"
    },
    {
        "raw": "METAR KCKP 121015Z AUTO 00000KT 4SM HZ CLR M28/M31 A3058 RMK AO2 T12841310"
    },
    {
        "raw": "METAR KBNW 120935Z AUTO 34011KT 10SM CLR M24/M25 A3052 RMK AO2"
    },
    {
        "raw": "METAR KPEX 120935Z AUTO 31003KT 10SM CLR M26/M29 A3056 RMK AO2"
    },
    {
        "raw": "METAR KJSO 120935Z AUTO 36006KT 2SM BR OVC002 M02/M02 A3019 RMK AO2 T10221022"
    },
    {
        "raw": "METAR EBDT 120925Z 08009KT 9999 FEW180 M05/M10 Q1032 BLU BLU"
    },
    {
        "raw": "METAR LFPB 120930Z AUTO 06015KT CAVOK M02/M09 Q1025 TEMPO 07015G25KT"
    },
    {
        "raw": "METAR KGNT 120935Z AUTO 31009KT 10SM BKN120 M03/M12 A2995 RMK AO2 T10321120"
    },
    {
        "raw": "METAR LRIA 120930Z 32018G28KT 9999 SCT025 M10/M15 Q1018 R14/920595"
    },
    {
        "raw": "METAR LFTW 120930Z AUTO 04007KT 360V060 9999 FEW020 OVC056 05/M01 Q1017 TEMPO BKN014"
    },
    {
        "raw": "METAR KRCM 120935Z AUTO 35012G16KT 10SM SCT032 OVC043 M14/M17 A3045 RMK AO2"
    },
    {
        "raw": "METAR KJMR 120935Z AUTO 31004KT 10SM CLR M23/M28 A3055 RMK AO2"
    },
    {
        "raw": "METAR KJKJ 120935Z AUTO 26004KT 10SM CLR M27/M32 A3060 RMK AO2"
    },
    {
        "raw": "METAR KARV 120935Z AUTO 34003KT 3SM -SN BKN017 OVC024 M20/M24 A3034 RMK AO2 T11981240"
    },
    {
        "raw": "METAR KGYL 120935Z AUTO 29005KT 10SM CLR M24/M28 A3057 RMK AO2 T12411279"
    },
    {
        "raw": "METAR KLRU 120935Z AUTO 27009KT 10SM CLR 06/M09 A2995 RMK AO2 T00611087"
    },
    {
        "raw": "METAR LYPG 120930Z 36017KT 9999 FEW050 05/M16 Q1023 NOSIG"
    },
    {
        "raw": "METAR LFPG 120930Z 07015KT CAVOK M03/M10 Q1025 NOSIG"
    },
    {
        "raw": "METAR EINN 120930Z 12009KT 090V160 9999 BKN019 BKN030 05/01 Q1018 NOSIG"
    },
    {
        "raw": "METAR LFMN 120930Z 32009KT 9999 FEW033 BKN065 10/05 Q1018 NOSIG"
    },
    {
        "raw": "METAR KEVU 120935Z AUTO 01011KT 10SM CLR M18/M22 A3051 RMK AO2 T11801226"
    },
    {
        "raw": "METAR UHSS 120930Z 11002MPS 9999 NSC M05/M08 Q1029 R01/810365 NOSIG RMK QFE770/1027"
    },
    {
        "raw": "METAR KRZN 120935Z AUTO 32005KT 3SM -SN BKN014 OVC020 M22/M26 A3053 RMK AO2 T12231257"
    },
    {
        "raw": "METAR LFOE 120930Z AUTO 07015KT CAVOK M03/M10 Q1024 TEMPO 07015G25KT"
    },
    {
        "raw": "METAR KVTI 120935Z AUTO 34007KT 10SM CLR M22/M25 A3048 RMK AO2 T12161251 PWINO"
    },
    {
        "raw": "METAR VIDP 120930Z 29005KT 2100 HZ NSC 24/13 Q1014 NOSIG"
    },
    {
        "raw": "METAR LHPP 120915Z 34012KT 9999 FEW026 M04/M12 Q1028"
    },
    {
        "raw": "METAR DABC 120930Z NIL"
    },
    {
        "raw": "METAR GMME 120930Z 15006KT 6000 BKN018 SCT040 15/12 Q1025 NOSIG"
    },
    {
        "raw": "METAR LFSB 120930Z 33006KT 6000 NSC M08/M09 Q1025 R15/0900 NOSIG"
    },
    {
        "raw": "METAR GMTT 120930Z NIL"
    },
    {
        "raw": "METAR DABB 120930Z NIL"
    },
    {
        "raw": "METAR VTSP 120930Z 27008KT 240V310 9999 FEW020 31/24 Q1008 NOSIG"
    },
    {
        "raw": "METAR LFMP 120930Z AUTO 04008KT 9999 OVC017 08/04 Q1016 NOSIG"
    },
    {
        "raw": "METAR YPTN 120930Z AUTO 33012KT 9999 // SCT046 BKN051 BKN063 30/23 Q1006"
    },
    {
        "raw": "METAR KROX 120935Z AUTO 21004KT 10SM CLR M35/M37 A3052 RMK AO2 TSNO"
    },
    {
        "raw": "METAR LFPO 120930Z 08013KT CAVOK M03/M10 Q1024 NOSIG"
    },
    {
        "raw": "METAR LFST 120930Z AUTO 01007KT CAVOK M05/M09 Q1027 NOSIG"
    },
    {
        "raw": "SPECI KFPR 120933Z AUTO 21003KT 3SM BR BKN006 18/17 A2998 RMK AO2 T01780167"
    },
    {
        "raw": "METAR LYPR 120930Z NIL"
    },
    {
        "raw": "METAR LYTV 120930Z 06003KT 360V130 CAVOK 08/M16 Q1021 NOSIG"
    },
    {
        "raw": "METAR OITR 120930Z NIL"
    },
    {
        "raw": "METAR LDOS 120930Z 31016KT 9999 SCT030 M04/M12 Q1029"
    },
    {
        "raw": "METAR LYBE 120930Z 30017KT 9999 SCT033 M05/M11 Q1029 NOSIG"
    },
    {
        "raw": "METAR LRBS 120930Z 00000KT 3000 -SN BR BKN020 M02/M05 Q1018 R07/29//95 BECMG 5000"
    },
    {
        "raw": "METAR UACC 120930Z 15003MPS 9999 OVC043 M10/M13 Q1028 R04/450550 NOSIG RMK QFE739/0985"
    },
    {
        "raw": "METAR EPWA 120930Z 33012KT 9999 FEW010 M10/M15 Q1028 R88/11//95 NOSIG"
    },
    {
        "raw": "METAR UKOO 120930Z 32013MPS 3300 BLSN BKN010 M07/M11 Q1012 R34/493040 NOSIG"
    },
    {
        "raw": "METAR LFOB 120930Z AUTO 07014KT CAVOK M03/M09 Q1026 NOSIG"
    },
    {
        "raw": "METAR LFMH 120930Z AUTO 18005KT 160V220 5000 BR NSC M00/M02 Q1017"
    },
    {
        "raw": "METAR LFRN 120930Z AUTO 08012KT 9999 BKN038 BKN052 OVC070 M01/M06 Q1020 NOSIG"
    },
    {
        "raw": "METAR LFCR 120930Z AUTO 07006KT 9000 -RA FEW041/// OVC058/// ///TCU 07/05 Q1013 BECMG SCT035 BKN045"
    },
    {
        "raw": "METAR KRGK 120935Z AUTO 33008KT 5SM HZ SCT055 SCT075 M21/M25 A3054 RMK AO2"
    },
    {
        "raw": "METAR KSXU 120935Z AUTO 03011KT 10SM OVC008 M08/M12 A3003 RMK AO2 T10801117"
    },
    {
        "raw": "METAR LELC 120930Z 25004KT 220V280 CAVOK 16/14 Q1018 NOSIG"
    },
    {
        "raw": "METAR LFRB 120930Z AUTO 06006KT 6000 OVC009 00/M00 Q1018 NOSIG"
    },
    {
        "raw": "METAR LFRS 120930Z AUTO 05011KT 9999 -FZRA BKN012 BKN043 BKN052 M01/M03 Q1018 TEMPO NSW BKN035"
    },
    {
        "raw": "METAR LPAZ 120930Z 21022KT 9999 FEW018 17/14 Q1015"
    },
    {
        "raw": "METAR LPPT 120930Z 33005KT 290V010 9999 FEW014 13/12 Q1024"
    },
    {
        "raw": "METAR LFBO 120930Z AUTO 16014KT 9999 FEW014/// BKN088/// OVC100/// ///TCU 09/06 Q1013 TEMPO 3000 RA BKN008 OVC014"
    },
    {
        "raw": "METAR KSDC 120935Z AUTO 11005KT 10SM OVC024 M11/M18 A3043 RMK AO2"
    },
    {
        "raw": "METAR UMMG 120930Z NIL"
    },
    {
        "raw": "METAR UTSK 120930Z 35008KT CAVOK 24/M06 Q1014 R16/CLRD70"
    },
    {
        "raw": "METAR UUOO 120930Z 14005MPS 9999 BKN008 04/03 Q1001 R12/651040 NOSIG RMK QFE737"
    },
    {
        "raw": "METAR UMMS 120930Z 35008G11MPS 2200 -SN BLSN OVC027 M13/M16 Q1015 RESN R31R/450737 R31L/////// NOSIG"
    },
    {
        "raw": "METAR LESA 120930Z 28016KT 9999 FEW012 SCT028 08/06 Q1021"
    },
    {
        "raw": "METAR LPLA 120930Z NIL"
    },
    {
        "raw": "METAR LECO 120930Z 19003KT 160V230 9999 FEW020 BKN038 12/10 Q1021 NOSIG"
    },
    {
        "raw": "METAR URKA 120930Z 19008MPS 170V230 9999 SCT/// 14/06 Q1001 R22/010070 TEMPO 24012G20MPS 1000 TSRA SCT007 BKN016CB RMK QFE746/0995"
    },
    {
        "raw": "METAR KCLK 120935Z AUTO 01017G20KT 10SM -SN SCT017 OVC029 M09/M12 A3034 RMK AO2"
    },
    {
        "raw": "METAR KVQQ 120935Z AUTO 00000KT 7SM FEW015 SCT035 BKN042 17/17 A2996 RMK AO2"
    },
    {
        "raw": "METAR SBNF 120900Z 28002KT 9999 FEW036 21/20 Q1013"
    },
    {
        "raw": "METAR KJXI 120935Z AUTO 33008KT 3SM BR OVC004 M02/M03 A3022 RMK AO2 T10251030"
    },
    {
        "raw": "METAR LQMO 120930Z 36011KT 310V040 CAVOK 02/M14 Q1023"
    },
    {
        "raw": "METAR KEBS 120915Z AUTO 33011KT 10SM FEW110 M25/M28 A3053 RMK AO2"
    },
    {
        "raw": "METAR YSCB 120930Z AUTO 36008KT 9999 // OVC085 20/18 Q1008"
    },
    {
        "raw": "METAR UAAH 120930Z 06007MPS CAVOK M06/M13 Q1027 R05/710155 NOSIG RMK QFE732/0977"
    },
    {
        "raw": "METAR ZGGG 120930Z 35005MPS 300V010 9999 BKN060 20/09 Q1015 NOSIG"
    },
    {
        "raw": "METAR UAAA 120930Z 27002MPS 2100 BR OVC004 01/00 Q1021 R88/2/0150 NOSIG RMK QBB130"
    },
    {
        "raw": "METAR LHBP 120930Z 34011KT 9999 FEW036 M06/M13 Q1027 NOSIG"
    },
    {
        "raw": "METAR KVDF 120935Z AUTO RMK AO2 PWINO"
    },
    {
        "raw": "METAR UMII 120930Z NIL"
    },
    {
        "raw": "METAR LFPV 120930Z AUTO 07016KT CAVOK M03/M10 Q1023 NOSIG"
    },
    {
        "raw": "METAR UASS 120930Z 14003MPS CAVOK M17/M22 Q1033 R08/79//37 NOSIG RMK QFE753/1005"
    },
    {
        "raw": "METAR LRTC 120930Z 33023KT CAVOK M05/M11 Q1017"
    },
    {
        "raw": "METAR DAOO 120930Z 20009KT 9999 FEW026 SCT233 16/10 Q1022"
    },
    {
        "raw": "METAR LROP 120930Z 22001KT 5000 -SN OVC029 M02/M03 Q1018 R08R/690194 BECMG 9999 NSW"
    },
    {
        "raw": "METAR LRTM 120930Z 27013KT 240V300 CAVOK M09/M15 Q1022 R07/791091"
    },
    {
        "raw": "METAR LDZA 120930Z 08007KT 030V120 CAVOK M03/M13 Q1031 TEMPO 05008KT"
    },
    {
        "raw": "METAR OIAW 120930Z NIL"
    },
    {
        "raw": "METAR LFSO 120930Z AUTO 07014KT 040V100 CAVOK M05/M11 Q1023 BECMG 07015G25KT"
    },
    {
        "raw": "METAR EICK 120930Z 12020KT 6000 -RA OVC007 03/03 Q1018 NOSIG"
    },
    {
        "raw": "METAR K3T5 120935Z AUTO 35014G19KT 5SM BR OVC008 00/M01 A3011 RMK AO2 T00011006"
    },
    {
        "raw": "METAR UNAA 120930Z 03003MPS CAVOK M21/M27 Q1035 R02/810154 NOSIG RMK QFE753"
    },
    {
        "raw": "METAR KBAC 120935Z AUTO 27009KT 10SM CLR M30/M33 A3053 RMK AO2"
    },
    {
        "raw": "METAR URMT 120930Z 14005MPS CAVOK 10/04 Q1006 R07/150060 NOSIG RMK QFE714"
    },
    {
        "raw": "METAR KHRJ 120935Z AUTO 36004KT 4SM BR OVC007 02/02 A3014 RMK AO2 T00230023"
    },
    {
        "raw": "METAR K22N 120935Z AUTO 06003KT 10SM CLR M08/M12 A3034 RMK AO2"
    },
    {
        "raw": "METAR LPPR 120930Z 26003KT 220V300 6000 FEW009 SCT013 14/12 Q1023"
    },
    {
        "raw": "METAR LPFL 120930Z 26014G30KT 200V310 9999 SCT025 14/06 Q1008"
    },
    {
        "raw": "METAR LPPS 120930Z 00000KT 9999 FEW014 17/13 Q1026"
    },
    {
        "raw": "METAR UTNN 120930Z NIL"
    },
    {
        "raw": "METAR UNBB 120930Z 36001MPS CAVOK M22/M29 Q1033 R06/990337 NOSIG RMK QFE752"
    },
    {
        "raw": "METAR LFLN 120930Z AUTO 07013KT CAVOK M03/M07 Q1019 NOSIG"
    },
    {
        "raw": "METAR UOOO 120930Z 21005MPS CAVOK M33/M37 Q1025 R19/39//35 NOSIG RMK QFE752/1003"
    },
    {
        "raw": "METAR KEDJ 120915Z AUTO 05010G17KT 10SM OVC050 M07/M10 A3019 RMK AO1"
    },
    {
        "raw": "METAR UWGG 120930Z 07004MPS 1600 R36R/1700D SN OVC005 M11/M14 Q1014 R36R/490534 NOSIG"
    },
    {
        "raw": "METAR KGAF 120935Z AUTO 25006KT 10SM CLR M31/M35 A3059 RMK AO2"
    },
    {
        "raw": "METAR VEGY 120930Z 31008KT 4000 HZ NSC 28/10 Q1012 NOSIG"
    },
    {
        "raw": "METAR KLUX 120935Z AUTO 04009G14KT 020V080 5SM RA OVC004 03/03 A3007 RMK AO2 P0001"
    },
    {
        "raw": "METAR LFMY 120930Z AUTO 06003KT CAVOK 10/04 Q1017 NOSIG"
    },
    {
        "raw": "METAR KW75 120935Z AUTO 04006KT 1 3/4SM OVC005 M01/M01 A3024 RMK AO1 P0003 T10101010"
    },
    {
        "raw": "METAR EIME 120930Z 12014KT 080V160 9999 FEW035 BKN075 03/M04 Q1023"
    },
    {
        "raw": "METAR EIWF 120930Z 13022KT 100V160 9999 BKN021 ///// Q1022 R21/2/////"
    },
    {
        "raw": "METAR KMCX 120955Z AUTO 01007KT 10SM OVC050 M09/M14 A3028 RMK AO2 T10871143"
    },
    {
        "raw": "METAR KCMD 121015Z AUTO RMK AO2 PWINO PNO TSNO"
    },
    {
        "raw": "METAR KIKG 121015Z AUTO 34011KT 2SM BR OVC006 04/04 A3006 RMK AO2 T00440044"
    },
    {
        "raw": "METAR YPAD 120930Z AUTO 23014KT 9999 // SCT026 19/13 Q1011"
    },
    {
        "raw": "METAR KAVC 120935Z AUTO 02005KT 7SM OVC004 00/M01 A3024 RMK AO2 T10051013"
    },
    {
        "raw": "METAR KHOB 120935Z AUTO 07011KT 1SM BR OVC003 M02/M02 A3007 RMK AO2"
    },
    {
        "raw": "METAR KS21 121015Z AUTO 02010KT 3SM -SN FEW006 BKN019 OVC033 M12/M14 A2994 RMK AO2"
    },
    {
        "raw": "METAR KHZE 120935Z AUTO 23007KT 8SM OVC004 M32/M36 A3048 RMK AO2"
    },
    {
        "raw": "METAR KPDC 120935Z AUTO 33006KT 10SM BKN080 M20/M24 A3049 RMK AO2 T11961237"
    },
    {
        "raw": "METAR K82V 121015Z AUTO 5SM HZ OVC015 M22/M25 A3007 RMK AO2"
    },
    {
        "raw": "METAR KIMS 121015Z AUTO 34003KT 10SM OVC029 M06/M07 A3021 RMK AO1"
    },
    {
        "raw": "METAR K33N 121015Z AUTO 04010KT 10SM OVC055 M03/M08 A3030 RMK A01"
    },
    {
        "raw": "METAR KVOA 121010Z AUTO 15011KT 10SM BKN055 BKN065 BKN080 21/19 A2991 RMK A01"
    },
    {
        "raw": "METAR KRZL 121015Z AUTO 35003KT 10SM OVC050 M08/M13 A3031 RMK AO2"
    },
    {
        "raw": "METAR KAAS 121015Z AUTO 00000KT 4SM OVC004 M03/M03 A3019 RMK AO1"
    },
    {
        "raw": "METAR KDXX 121015Z AUTO 28004KT 10SM CLR M26/M29 A3062 RMK AO2 PWINO"
    },
    {
        "raw": "METAR KACP 121015Z AUTO 02011G17KT 7SM -DZ OVC004 02/00 A3009 RMK AO2"
    },
    {
        "raw": "METAR KHYX 121015Z AUTO 10005KT 4SM -SN SCT016 BKN022 OVC027 M08/M11 A3036 RMK AO2"
    },
    {
        "raw": "METAR K4M9 121015Z AUTO 10SM BKN025 OVC040 M05/M08 A3029 RMK AO2 PWINO"
    },
    {
        "raw": "METAR KMJQ 121015Z AUTO 32009KT 10SM SCT120 M25/M27 A3054 RMK AO2"
    },
    {
        "raw": "METAR KOLG 121015Z AUTO 31004KT 5SM OVC041 M23/M27 A3048 RMK AO1"
    },
    {
        "raw": "METAR KU55 121015Z AUTO 17009KT 10SM SCT019 BKN033 OVC042 02/M00 A2985 RMK A01"
    },
    {
        "raw": "METAR K0S9 121015Z AUTO 00000KT 10SM OVC049 M01/M07 A3008 RMK AO2"
    },
    {
        "raw": "METAR KVTP 121015Z AUTO 25012G21KT 230V300 10SM CLR M03/M10 A2980 RMK AO2"
    },
    {
        "raw": "METAR KXVG 121017Z AUTO 00000KT 10SM CLR M32/M35 A3050 RMK AO2"
    },
    {
        "raw": "METAR KJGG 121015Z AUTO 00000KT 2SM OVC008 01/01 A3022 RMK AO1 VIS 1 1/2V3 P0005"
    },
    {
        "raw": "METAR KCXW 121015Z AUTO 02009KT 10SM SCT022 OVC029 M03/M06 A3027 RMK A01"
    },
    {
        "raw": "METAR KCFE 121015Z 10SM CLR M24/M29 A3058 RMK AO2 T12451290"
    },
    {
        "raw": "METAR KPQN 121015Z AUTO 10SM M25/M27 A3051 RMK AO2"
    },
    {
        "raw": "METAR K2LS 121015Z AUTO 01007G13KT 330V030 10SM OVC003 12/12 A2996 RMK AO2 TSNO"
    },
    {
        "raw": "METAR KJTC 121015Z AUTO 23006KT 10SM CLR M01/M12 A2995 RMK AO2"
    },
    {
        "raw": "METAR KF45 121010Z AUTO 00000KT 1SM BR CLR 17/17 A3000 RMK AO2"
    },
    {
        "raw": "METAR KBOW 121015Z AUTO 00000KT M1/4SM FG BKN001 OVC033 17/17 A2998 RMK AO2"
    },
    {
        "raw": "METAR KBVU 121015Z AUTO 18009G18KT 10SM CLR 15/M03 A2972 RMK AO2"
    },
    {
        "raw": "METAR KBUU 121015Z AUTO 35005KT 4SM A3035 RMK AO2 PWINO"
    },
    {
        "raw": "METAR KCIN 121015Z AUTO 33009KT 10SM FEW049 BKN060 OVC090 M24/M27 A3055 RMK AO2"
    },
    {
        "raw": "METAR KSZY 121015Z AUTO 36008KT 3SM BR OVC010 M02/M03 A3014 RMK A01"
    },
    {
        "raw": "METAR KMNE 121015Z AUTO 3SM BR OVC004 M01/M01 A3020 RMK AO2 T10061007"
    },
    {
        "raw": "METAR KMVH 121015Z AUTO 26008KT 10SM CLR M27/M36 A3017 RMK AO2"
    },
    {
        "raw": "METAR KPRS 121015Z AUTO 09004KT 10SM CLR 06/00 A3002 RMK AO2 T00560000"
    },
    {
        "raw": "METAR K05U 121015Z AUTO 00000KT 9SM FEW030 BKN039 OVC060 01/01 A2981 RMK A01"
    },
    {
        "raw": "METAR KFLY 121015Z AUTO 17012G20KT 130V200 7SM -SN OVC003 M16/M18 A2991 RMK AO2 T11581178"
    },
    {
        "raw": "METAR KSGS 121015Z AUTO 33008KT 10SM CLR M22/M28 A3057 RMK AO2 T12211277"
    },
    {
        "raw": "METAR KOQN 121015Z AUTO 10SM CLR M05/M11 A3031 RMK AO2"
    },
    {
        "raw": "METAR KDNA 121015Z AUTO 21005KT 10SM CLR 07/M08 A2994 RMK AO2"
    },
    {
        "raw": "METAR KBFW 121015Z AUTO 00000KT 7SM SCT023 OVC042 M24/M30 A3046 RMK AO2"
    },
    {
        "raw": "METAR KSUZ 120935Z AUTO 02007KT 10SM OVC012 M03/M05 A3024 RMK A01"
    },
    {
        "raw": "METAR KK82 120935Z AUTO 03010KT 10SM CLR M17/M19 A3048 RMK AO2"
    },
    {
        "raw": "METAR KN38 121015Z AUTO 03004KT 10SM BKN085 M14/M15 A3023 RMK AO2"
    },
    {
        "raw": "METAR KO32 121010Z AUTO 06009KT 2 1/2SM -RA FEW003 BKN024 OVC055 12/12 A2991 RMK AO2"
    },
    {
        "raw": "METAR KSJX 120935Z AUTO 10004KT 2SM -SN OVC013 M10/M12 A3039 RMK AO2 T11001117"
    },
    {
        "raw": "METAR KSLH 120935Z AUTO 00000KT 2SM -SN OVC009 M12/M14 A3041 RMK AO2"
    },
    {
        "raw": "METAR KT69 120935Z AUTO 02009G14KT 2 1/2SM BR 02/01 A3006 RMK A01"
    },
    {
        "raw": "METAR KMXO 120935Z AUTO 33010KT 10SM CLR M20/M22 A3046 RMK AO2"
    },
    {
        "raw": "METAR KC35 121015Z AUTO 31004KT 7SM SCT040 BKN055 OVC080 M20/M23 A3042 RMK AO2 T11961227 PWINO"
    },
    {
        "raw": "METAR KDSF 121015Z AUTO 06011KT 10SM SCT055 23/20 A2988 RMK A01"
    },
    {
        "raw": "METAR KHHV 121015Z AUTO 04022KT 1 1/4SM BR BKN004 BKN007 OVC011 18/17 A2984 RMK A01"
    },
    {
        "raw": "METAR KBAM 121015Z AUTO 25006KT 10SM OVC036 06/06 A2980 RMK AO1"
    },
    {
        "raw": "METAR KECU 121015Z AUTO 36010G15KT 1 1/2SM -UP M02/M02 A3010 RMK AO2"
    },
    {
        "raw": "METAR KBCB 120935Z AUTO 09005KT 7SM -SN OVC005 M01/M01 A3014 RMK AO2 T10151015"
    },
    {
        "raw": "METAR K3K8 121015Z AUTO 01015G21KT 10SM OVC026 M15/M18 A3036 RMK AO2"
    },
    {
        "raw": "METAR KSVH 121015Z AUTO 04006KT 10SM OVC008 01/00 A3013 RMK AO2 T00051002"
    },
    {
        "raw": "METAR KQFB 120930Z AUTO 33001KT 9999 CLR 12/M02 A3027 RMK A02 TSNO"
    },
    {
        "raw": "METAR TFFF 120930Z AUTO 11010KT 9999 FEW029 SCT043 24/20 Q1013 TEMPO 4000 SHRA SCT018TCU"
    },
    {
        "raw": "METAR KCDA 120935Z AUTO 28003KT 10SM CLR M19/M24 A3026 RMK AO2 T11931242"
    },
    {
        "raw": "METAR KIPJ 120935Z AUTO 04009KT 10SM OVC009 01/01 A3013 RMK AO2 T00080008"
    },
    {
        "raw": "METAR KPCW 121015Z AUTO 07014KT 10SM BKN017 OVC024 M06/M08 A3026 RMK AO2"
    },
    {
        "raw": "METAR KAZC 121015Z AUTO 00000KT 10SM CLR 07/00 A2984 RMK AO2"
    },
    {
        "raw": "METAR KC83 121015Z AUTO 27018KT 10SM CLR 10/07 A2992 RMK AO2"
    },
    {
        "raw": "METAR KHWY 120935Z AUTO 05003KT 10SM OVC043 M01/M04 A3027 RMK AO2 T10101042"
    },
    {
        "raw": "METAR K3D2 120935Z AUTO 34006KT 2SM -SN OVC014 M13/M15 A3036 RMK AO2 T11311148"
    },
    {
        "raw": "METAR KLBE 120935Z AUTO 05007KT 10SM OVC065 M04/M08 A3018 RMK AO2"
    },
    {
        "raw": "METAR KDCM 120935Z AUTO 03011G15KT 10SM BKN007 OVC012 03/03 A3010 RMK AO2 LTG DSNT SE"
    },
    {
        "raw": "METAR KPAN 120935Z AUTO 13003KT 10SM OVC110 07/M04 A2996 RMK AO2"
    },
    {
        "raw": "METAR KPEA 120935Z AUTO 00000KT 10SM CLR M22/M25 A3052 RMK AO2 T12171252"
    },
    {
        "raw": "METAR KUKT 120935Z AUTO 01008KT 10SM CLR M07/M13 A3030 RMK A01"
    },
    {
        "raw": "METAR KULM 120935Z AUTO 33010KT 10SM CLR M24/M29 A3058 RMK AO2"
    },
    {
        "raw": "METAR KBPC 120935Z AUTO 06010KT 10SM OVC014 M10/M12 A3029 RMK AO2"
    },
    {
        "raw": "METAR KW78 120935Z AUTO 3SM OVC006 00/00 A3020 RMK AO1 P0001 T00001005"
    },
    {
        "raw": "METAR KEIK 120935Z AUTO 08005KT 5SM -SN OVC015 M15/M17 A3004 RMK AO2 T11501171"
    },
    {
        "raw": "METAR KONZ 120935Z AUTO 06007KT 10SM SCT060 OVC070 M08/M12 A3032 RMK AO2 T10851124"
    },
    {
        "raw": "METAR KU69 120935Z AUTO 30003KT 10SM FEW055 OVC065 02/M04 A2977 RMK A01"
    },
    {
        "raw": "METAR K3LF 120935Z AUTO 34018KT 10SM SCT040 OVC045 M11/M15 A3036 RMK AO2 T11131150"
    },
    {
        "raw": "METAR K3N8 120935Z AUTO 24006KT 10SM CLR M30/M33 A3053 RMK AO2 T13001331"
    },
    {
        "raw": "METAR KH71 120935Z AUTO RMK AO2 PNO PWINO TSNO"
    },
    {
        "raw": "METAR KSUN 120955Z AUTO 31004KT 10SM SCT049 BKN100 OVC120 M01/M02 A2974 RMK AO2 TSNO"
    },
    {
        "raw": "METAR KORG 120955Z AUTO 01010G18KT 7SM OVC006 04/03 A3005 RMK AO2 T00420032"
    },
    {
        "raw": "METAR KSFY 120955Z AUTO 31003KT 7SM -SN OVC041 M15/M18 A3042 RMK AO2"
    },
    {
        "raw": "METAR KFKS 120935Z AUTO 13003KT 4SM -SN SCT021 BKN028 OVC036 M10/M13 A3037 RMK AO2 T11021131"
    },
    {
        "raw": "METAR KGZN 120920Z AUTO 36011G20KT 10SM BKN010 OVC035 M06/M07 A3017 RMK AO2"
    },
    {
        "raw": "METAR KASN 120935Z AUTO 00000KT 10SM OVC005 07/07 A3000 RMK AO2 T00720071"
    },
    {
        "raw": "METAR KAXS 120935Z AUTO 02015KT 10SM OVC016 M07/M10 A3036 RMK AO2 T10671103"
    },
    {
        "raw": "METAR KM21 120935Z AUTO 00000KT 3SM HZ OVC010 M04/M07 A3021 RMK AO2 T10451071"
    },
    {
        "raw": "METAR KHDE 120955Z AUTO 04007KT 10SM OVC060 M18/M21 A3043 RMK AO2 T11841210"
    },
    {
        "raw": "METAR KVAF 121015Z AUTO 03016G24KT 2 1/2SM BR BKN009 BKN015 BKN035 17/15 A2987 RMK A01"
    },
    {
        "raw": "METAR KGNG 120935Z AUTO 07003KT 10SM -UP OVC013 01/01 A2978 RMK AO2"
    },
    {
        "raw": "METAR KMKN 120935Z AUTO 10SM OVC011 M05/M06 A3020 RMK AO2 T10501058"
    },
    {
        "raw": "METAR KD57 120935Z AUTO 25011KT 10SM SCT028 SCT035 SCT044 M30/M37 A3043 RMK AO2"
    },
    {
        "raw": "METAR NZAA 120930Z AUTO 20008KT 9999 NCD 18/13 Q1017 NOSIG"
    },
    {
        "raw": "METAR KEOE 120935Z AUTO 05009G17KT 10SM SCT006 BKN013 OVC019 05/04 A3010 RMK AO2"
    },
    {
        "raw": "METAR KMCJ 120935Z AUTO 36016G27KT 2SM BR OVC006 01/01 A3002 RMK A01"
    },
    {
        "raw": "METAR KHMP 121015Z AUTO 36003KT 5SM BR OVC040 14/14 A3000 RMK AO2 T01380137"
    },
    {
        "raw": "METAR KFWS 121015Z AUTO 36016KT 7SM OVC016 M04/M07 A3027 RMK AO2 T10401066 PWINO"
    },
    {
        "raw": "METAR K5SM 121015Z AUTO 23013G22KT 1SM -SN OVC002 M06/M07 A2984 RMK AO2"
    },
    {
        "raw": "METAR KGMJ 121015Z AUTO 36004KT 10SM -SN CLR M10/M12 A3037 RMK AO2"
    },
    {
        "raw": "METAR KSYF 121015Z AUTO 07007KT 10SM OVC014 M16/M19 A3026 RMK AO2 T11651190 PWINO"
    },
    {
        "raw": "METAR KY70 121018Z AUTO 04003KT 5SM -SN SCT047 OVC060 M09/M12 A3032 RMK AO2 T10951117"
    },
    {
        "raw": "METAR KONP 121015Z AUTO 09007KT 2SM +RA OVC005 02/02 A2988 RMK AO2 P0002"
    },
    {
        "raw": "METAR KEVM 121015Z AUTO 29003KT 10SM OVC036 M27/M31 A3047 RMK AO2 T12661310"
    },
    {
        "raw": "METAR KOLE 121015Z AUTO 08006KT 10SM BKN080 OVC110 M13/M16 A3020 RMK AO2"
    },
    {
        "raw": "METAR KOZA 121015Z AUTO 04012KT 2 1/2SM BR OVC004 M02/M02 A3013 RMK AO2"
    },
    {
        "raw": "METAR KLHM 121015Z AUTO 11004KT 10SM CLR 07/06 A2987 RMK AO1"
    },
    {
        "raw": "METAR KPMV 121015Z AUTO 01007KT 10SM CLR M20/M24 A3056 RMK AO2 T12001243"
    },
    {
        "raw": "METAR KPWC 121015Z AUTO 00000KT 10SM CLR M29/M32 A3053 RMK AO2"
    },
    {
        "raw": "METAR K48A 121015Z AUTO 00000KT 10SM OVC019 16/16 A2994 RMK AO2 T01640163"
    },
    {
        "raw": "METAR KPNM 121017Z AUTO 00000KT 10SM CLR M26/M31 A3055 RMK AO2"
    },
    {
        "raw": "METAR KOYM 121015Z AUTO 09004KT 10SM OVC080 M10/M13 A3022 RMK AO2"
    },
    {
        "raw": "METAR KPLU 121015Z AUTO 00000KT 10SM -SN FEW009 OVC036 M03/M04 A3000 RMK AO2"
    },
    {
        "raw": "METAR KPOY 121015Z AUTO 28005KT 4SM -SN CLR M26/M31 A3005 RMK AO2"
    },
    {
        "raw": "METAR KCQB 121015Z AUTO 36009KT 10SM -SN OVC014 M10/M12 A3036 RMK AO2 T11001122"
    },
    {
        "raw": "METAR KBHC 121015Z AUTO 00000KT 1/4SM FG OVC001 15/15 A2995 RMK AO2"
    },
    {
        "raw": "METAR K77S 121015Z AUTO 34003KT 10SM OVC004 02/01 A2990 RMK A01"
    },
    {
        "raw": "METAR KM25 121035Z AUTO 36005KT 10SM BKN011 OVC019 M05/M07 A3025 RMK AO2"
    },
    {
        "raw": "METAR KCLI 121015Z AUTO 32004KT 5SM HZ BKN039 OVC045 M15/M18 A3038 RMK AO2 T11481177"
    },
    {
        "raw": "METAR KHTH 121015Z AUTO 34005G15KT 3SM HZ OVC023 06/02 A2985 RMK A01"
    },
    {
        "raw": "METAR KS39 121015Z AUTO 24005KT 10SM BKN007 OVC018 M11/M12 A2998 RMK AO2"
    },
    {
        "raw": "METAR KCCU 121015Z AUTO 24012G17KT 10SM SCT020 BKN033 OVC040 M05/M10 RMK AO2"
    },
    {
        "raw": "METAR KPRG 121015Z AUTO 36007KT 10SM OVC032 M07/M12 A3030 RMK AO2 T10711122"
    },
    {
        "raw": "METAR K4BM 121015Z AUTO 19014G23KT 10SM CLR M07/M12 A2979 RMK AO2"
    },
    {
        "raw": "METAR K5R8 121015Z AUTO 36008G14KT 7SM -DZ OVC008 02/01 A3007 RMK AO2 T00170007"
    },
    {
        "raw": "METAR KAEL 121015Z AUTO 32005KT 10SM CLR M23/M26 A3051 RMK AO2"
    },
    {
        "raw": "METAR KRLD 121015Z AUTO 35012G16KT 4SM -SN BKN029 OVC037 M06/M10 A3027 RMK AO2 T10631102"
    },
    {
        "raw": "METAR KRQO 121015Z AUTO 36012KT 7SM -SN BR OVC012 M10/M12 A3034 RMK AO2 T11031121"
    },
    {
        "raw": "METAR KTBX 121015Z AUTO OVC013 A2985 RMK AO2 PWINO"
    },
    {
        "raw": "METAR KFYG 121015Z AUTO 00000KT 10SM FEW021 OVC048 A3038 RMK AO2"
    },
    {
        "raw": "METAR KY49 121015Z AUTO 00000KT 10SM CLR M30/M33 A3050 RMK AO2 T13031332"
    },
    {
        "raw": "METAR KEHY 121015Z AUTO 2 1/2SM SCT008 OVC014 M18/M22 A2970 RMK AO2 PWINO"
    },
    {
        "raw": "METAR KENL 121015Z AUTO 34014KT 10SM SCT015 BKN030 OVC045 M07/M10 A3030 RMK AO2 T10751103"
    },
    {
        "raw": "METAR KJSV 121015Z AUTO 00000KT 10SM OVC014 M05/M07 A3032 RMK AO2"
    },
    {
        "raw": "METAR KK88 121015Z AUTO 36012KT 4SM SCT014 OVC035 M13/M15 A3043 RMK AO1 T11301155"
    },
    {
        "raw": "METAR K33V 121015Z AUTO 19010G18KT 10SM SCT030 BKN038 OVC048 M01/M06 A2976 RMK AO2 T10131059"
    },
    {
        "raw": "METAR K3R7 121015Z AUTO 01014G20KT 5SM BR OVC005 03/03 A3004 RMK AO2 T00260026"
    },
    {
        "raw": "METAR KBEC 121015Z AUTO 01014G21KT 10SM OVC035 M14/M18 A3039 RMK AO2 T11381180"
    },
    {
        "raw": "METAR KLUV 121015Z AUTO 2 1/2SM BR OVC003 M08/M08 A3016 RMK AO2"
    },
    {
        "raw": "METAR KCIR 121015Z 10SM OVC043 M05/M09 A3028 RMK AO2 T10551091"
    },
    {
        "raw": "METAR KBVN 121015Z AUTO 36006KT 10SM OVC090 M19/M23 A3053 RMK AO2 T11951230"
    },
    {
        "raw": "METAR KBGE 121015Z AUTO 00000KT 10SM OVC004 17/17 A2994 RMK AO2 T01690166"
    },
    {
        "raw": "METAR KMDD 121015Z AUTO 08012KT 1 3/4SM UP BR OVC003 M04/M05 A3013 RMK AO2 T10411047"
    },
    {
        "raw": "METAR KHMZ 121015Z AUTO 09004KT 10SM OVC050 M05/M12 A3024 RMK AO2 T10521118"
    },
    {
        "raw": "METAR KHVE 121015Z AUTO 25005G21KT 210V270 10SM SCT035 BKN065 OVC070 09/M01 A2979 RMK AO2"
    },
    {
        "raw": "METAR KJSY 121015Z AUTO 00000KT 2 1/2SM -SN OVC025 M06/M08 A2986 RMK AO2 T10651081"
    },
    {
        "raw": "METAR KRHP 121015Z AUTO 00000KT 5SM +RA BKN003 BKN008 OVC019 10/10 A2996 RMK AO2 P0005 T01010101"
    },
    {
        "raw": "METAR KFEP 121015Z AUTO 34007KT 7SM -SN OVC039 M16/M18 A3040 RMK AO2 T11581185"
    },
    {
        "raw": "METAR KAQR 121015Z AUTO 36010G15KT 7SM OVC010 A3031 RMK AO2 PWINO PNO"
    },
    {
        "raw": "METAR K2G9 121015Z AUTO 11006KT 10SM OVC038 M06/M10 A3013 RMK AO2"
    },
    {
        "raw": "METAR KC75 121015Z AUTO 33004KT 10SM OVC026 M14/M17 A3039 RMK AO2 T11381166 PWINO"
    },
    {
        "raw": "METAR KEBG 121015Z AUTO 35009KT 2 1/2SM BR OVC005 04/04 A3007 RMK AO2 T00420037 TSNO"
    },
    {
        "raw": "METAR KFET 121015Z AUTO 34009KT 10SM OVC090 M20/M23 A3056 RMK AO2 T11971230"
    },
    {
        "raw": "METAR KCTJ 121015Z AUTO 00000KT 5SM BR BKN003 OVC008 12/11 A3000 RMK AO2 T01150113"
    },
    {
        "raw": "METAR KE38 121015Z AUTO 00000KT 10SM CLR M01/M04 A3006 RMK AO2 T10111041"
    },
    {
        "raw": "METAR KDUX 121015Z AUTO 04007KT 10SM -SN OVC011 M12/M14 A3016 RMK AO2 T11201145"
    },
    {
        "raw": "METAR KGYB 121015Z AUTO 36008KT 2 1/2SM BR OVC005 M01/M02 A3015 RMK AO2 T10141023"
    },
    {
        "raw": "METAR KIKW 121015Z AUTO 00000KT 2 1/2SM -SN OVC018 M08/M10 A3036 RMK AO2 T10831101"
    },
    {
        "raw": "METAR KOCQ 121015Z AUTO 34004KT 3SM SCT024 BKN029 OVC044 M14/M16 A3039 RMK AO1 T11421162"
    },
    {
        "raw": "METAR K2V5 121015Z AUTO 10007KT 10SM OVC012 M15/M17 A3023 RMK AO2"
    },
    {
        "raw": "METAR K1M5 121015Z AUTO 3SM BR OVC004 M03/M03 A3013 RMK A01"
    },
    {
        "raw": "METAR KI16 121015Z AUTO 10SM 03/01 A3006 RMK AO2 T00320011"
    },
    {
        "raw": "METAR KT74 121015Z AUTO 36018G24KT 7SM BR OVC007 M02/M04 A3018 RMK AO2 T10231035"
    },
    {
        "raw": "METAR KDVO 121015Z AUTO 27013G19KT 10SM FEW021 SCT029 SCT039 10/09 A2996 RMK AO2"
    },
    {
        "raw": "METAR KE41 121015Z AUTO 05010KT 1 3/4SM BR OVC003 M04/M04 A3011 RMK AO2 T10381043"
    },
    {
        "raw": "METAR KAYS 121015Z AUTO 11003KT 1/4SM FG OVC002 16/15 A2994 RMK AO2 T01600152"
    },
    {
        "raw": "METAR KCQM 121016Z AUTO 00000KT 10SM SCT070 M28/M31 A3046 RMK AO2"
    },
    {
        "raw": "METAR KDED 121015Z AUTO 00000KT 10SM OVC024 18/18 A2998 RMK AO2 T01840181"
    },
    {
        "raw": "METAR KLXN 121015Z AUTO 07010KT 10SM OVC060 M18/M21 A3042 RMK AO2 T11771209"
    },
    {
        "raw": "METAR K04V 121015Z AUTO 31006KT 10SM CLR M05/M09 A2985 RMK AO2"
    },
    {
        "raw": "METAR KGAO 121015Z AUTO 01009KT 10SM OVC004 12/11 A2994 RMK AO2 LTG DSNT W AND NW T01200105"
    },
    {
        "raw": "METAR KTDF 121015Z AUTO 04006KT 7SM UP OVC007 00/00 A3019 RMK AO2 P0001"
    },
    {
        "raw": "METAR KDBN 121015Z AUTO 00000KT 10SM BKN050 BKN100 OVC120 17/16 A2996 RMK AO2"
    },
    {
        "raw": "METAR K9MN 121015Z AUTO 30009KT 280V340 7SM SCT010 BKN021 BKN050 M21/M24 A3050 RMK AO1 T12101240"
    },
    {
        "raw": "METAR KUNI 121015Z AUTO 02005KT 10SM OVC023 M03/M06 A3013 RMK AO2 T10331065"
    },
    {
        "raw": "METAR DNKA 121000Z NIL"
    },
    {
        "raw": "METAR DXNG 121000Z 29004KT 220V360 CAVOK 31/17 Q1015"
    },
    {
        "raw": "METAR CYKF 121000Z AUTO 02004KT 350V060 9SM -SN OVC050 M13/M18 A3033 RMK SLP298"
    },
    {
        "raw": "METAR KANQ 121015Z AUTO 06008KT 10SM OVC060 M08/M12 A3026 RMK AO2"
    },
    {
        "raw": "METAR KVNC 121015Z AUTO 05005KT 7SM CLR 19/19 A2997 RMK AO2"
    },
    {
        "raw": "METAR KGGE 121015Z AUTO 04006KT 3SM -RA OVC002 09/09 A3004 RMK AO2"
    },
    {
        "raw": "METAR OEAO 121000Z 21004KT CAVOK 27/01 Q1014"
    },
    {
        "raw": "METAR WMKC 121000Z 06009KT 020V100 9999 FEW018 28/23 Q1010"
    },
    {
        "raw": "METAR OENG 121000Z 10006KT CAVOK 24/02 Q1018 NOSIG"
    },
    {
        "raw": "METAR FOOT 121000Z NIL"
    },
    {
        "raw": "METAR KCDH 121015Z AUTO 00000KT 9SM OVC009 M02/M03 A3024 RMK AO2"
    },
    {
        "raw": "METAR OETB 121000Z 33005KT CAVOK 23/00 Q1014 NOSIG"
    },
    {
        "raw": "SPECI KLIC 121009Z AUTO 14013KT 5SM BR OVC007 M16/M18 A3002 RMK AO2 SNB0958E07 P0000 T11561178"
    },
    {
        "raw": "METAR KIJX 120955Z AUTO 33012G17KT 10SM -SN OVC045 M13/M15 A3038 RMK AO2 T11311153"
    },
    {
        "raw": "METAR KINS 120958Z AUTO 14003KT 10SM CLR 08/M02 A2968 RMK AO2 SLP026 T00791022 $"
    },
    {
        "raw": "METAR KJCA 120955Z AUTO 07013G18KT 3SM -DZ BR OVC002 07/ A3002 RMK AO2 VIS 2 1/2V4 T0069////"
    },
    {
        "raw": "METAR KT82 120955Z AUTO 01005KT 2SM BR OVC005 M03/M03 A3011 RMK AO2 T10261026"
    },
    {
        "raw": "METAR KTRK 120955Z AUTO 00000KT 7SM -SN SCT014 BKN020 BKN027 00/00 A2986 RMK AO2"
    },
    {
        "raw": "METAR PGUM 120954Z 09008KT 10SM CLR 26/19 A2988 RMK AO2 SLP109 T02560189"
    }
]