[
    {
        "raw": "METAR KVNW 120955Z AUTO 07008KT M07/M11 A3024 RMK AO2 PWINO"
    },
    {
        "raw": "METAR KVDF 120935Z AUTO RMK AO2 PWINO"
    },
    {
        "raw": "METAR KCMD 121015Z AUTO RMK AO2 PWINO PNO TSNO"
    },
    {
        "raw": "METAR KTBX 121015Z AUTO OVC013 A2985 RMK AO2 PWINO"
    },
    {
        "raw" : "METAR KEHY 121015Z AUTO 2 1/2SM SCT008 OVC014 M18/M22 A2970 RMK AO2 PWINO"
    },
    {
        "raw": "METAR KLQK 120955Z AUTO 07007KT 10SM OVC007 04/04 A3005 RMK AO2 T00370037"
    },
    {
        "raw": "METAR KJCT 120951Z AUTO 05011KT 3SM BR OVC006 M02/M04 A3013 RMK AO2 SLP201 I1000 T10221044"
    },
    {
        "raw": "METAR KBAZ 120951Z AUTO 02015G22KT 2 1/2SM -FZRA OVC007 A3011 RMK AO2 PK WND 02027/0922 RAB25E32FZRAB32 SLPNO P0000 I1002 $"
    },
    {
        "raw": "METAR KSTL 120951Z 36010KT 9SM -SN FEW018 OVC043 M10/M14 A3036 RMK AO2 SLP298 P0000 T11001144 $"
    },
    {
        "raw": "METAR EGKK 120950Z 08013KT CAVOK M00/M07 Q1029"
    },
    {
        "raw": "METAR KOMA 120952Z 02008KT 10SM OVC095 M22/M24 A3060 RMK AO2 SLP391 T12171244 $"
    },
    {
        "raw": "METAR EGLL 120950Z AUTO 10014KT 9999 NCD 00/M07 Q1030"
    },
    {
        "raw": "METAR KPSX 120952Z AUTO 01014G24KT 2SM BR OVC005 02/01 A3005 RMK AO2 PK WND 36030/0921 SLP174 T00170011 $"
    }
]